{
"type": "FeatureCollection",
"name": "Hindon_Subbasin_polygon",
"crs": { "type": "name", "properties": { "name": "urn:ogc:def:crs:OGC:1.3:CRS84" } },
"features": [
{ "type": "Feature", "properties": { "HYBAS_ID": 4060816250, "NEXT_DOWN": 4060855310, "NEXT_SINK": 4060025450, "MAIN_BAS": 4060025450, "DIST_SINK": 2346.8, "DIST_MAIN": 2346.8, "SUB_AREA": 5895.6, "UP_AREA": 5895.6, "PFAF_ID": 452496, "SIDE": "M", "LAKE": 0, "ENDO": 0, "COAST": 0, "ORDER": 3, "SORT": 1317 }, "geometry": { "type": "MultiPolygon", "coordinates": [ [ [ [ 77.5416666666667, 28.65416666666669 ], [ 77.542019992404548, 28.630908881293426 ], [ 77.545480007595515, 28.627424452039953 ], [ 77.545833333333363, 28.625 ], [ 77.545833333333363, 28.616666666666688 ], [ 77.542479112413233, 28.61563110351565 ], [ 77.540809461805594, 28.604915025499157 ], [ 77.520589192708371, 28.603332180447072 ], [ 77.524344550238752, 28.59795566134985 ], [ 77.525655449761317, 28.588988918728322 ], [ 77.51764967176652, 28.586516994900197 ], [ 77.516011216905412, 28.581211005316863 ], [ 77.513155449761314, 28.577122328016515 ], [ 77.511844550238749, 28.555655585394987 ], [ 77.520074462890662, 28.553114488389781 ], [ 77.521488783094654, 28.539544338650195 ], [ 77.524344550238752, 28.53545566134985 ], [ 77.525655449761317, 28.531211005316862 ], [ 77.528538682725724, 28.527083333333355 ], [ 77.525655449761317, 28.522955661349851 ], [ 77.524344550238752, 28.516420830620682 ], [ 77.528511216905414, 28.510455661349848 ], [ 77.529166666666697, 28.508333333333358 ], [ 77.528599378797779, 28.506122843424503 ], [ 77.525567287868952, 28.502210489908876 ], [ 77.524149237738754, 28.496684095594642 ], [ 77.518622843424509, 28.495266045464433 ], [ 77.50221048990889, 28.479733954535611 ], [ 77.484195624457499, 28.478526136610267 ], [ 77.483131917317749, 28.473781331380231 ], [ 77.487038167317749, 28.468741183810785 ], [ 77.479733954535618, 28.460543823242212 ], [ 77.47831590440542, 28.455017428927974 ], [ 77.471541680230075, 28.453279283311655 ], [ 77.470129055447089, 28.442586263020857 ], [ 77.464710489908882, 28.438067287868947 ], [ 77.4625, 28.4375 ], [ 77.4625, 28.433333333333355 ], [ 77.458333333333371, 28.433333333333355 ], [ 77.45771586100264, 28.435493638780404 ], [ 77.454784138997425, 28.439506361219642 ], [ 77.453516981336833, 28.486684841579883 ], [ 77.443673027886319, 28.488117472330753 ], [ 77.435493638780414, 28.495215861002627 ], [ 77.43009304470489, 28.496759711371549 ], [ 77.428194851345523, 28.503398301866341 ], [ 77.417401801215306, 28.504969278971377 ], [ 77.416049194335969, 28.51882697211374 ], [ 77.413061523437534, 28.522916666666688 ], [ 77.416049194335969, 28.527006361219641 ], [ 77.417284138997431, 28.531326972113739 ], [ 77.420271809895866, 28.535416666666691 ], [ 77.416552734375031, 28.540508015950543 ], [ 77.409015570746561, 28.54266289605037 ], [ 77.407715861002643, 28.562969292534746 ], [ 77.411943223741346, 28.568756442599849 ], [ 77.404784138997428, 28.577006361219642 ], [ 77.404166666666697, 28.579166666666691 ], [ 77.403813340928849, 28.581591118706619 ], [ 77.400353325737882, 28.585075547960095 ], [ 77.399646674262186, 28.598257785373288 ], [ 77.396186659071219, 28.601742214626761 ], [ 77.395833333333371, 28.608333333333356 ], [ 77.395190429687531, 28.618801540798636 ], [ 77.388142903645871, 28.627031792534744 ], [ 77.386535644531278, 28.632368977864608 ], [ 77.381198459201428, 28.633976236979191 ], [ 77.368801540798643, 28.645190429687524 ], [ 77.363464355468778, 28.646797688802106 ], [ 77.3618570963542, 28.652134874131967 ], [ 77.354016791449681, 28.66129048665367 ], [ 77.345848592122422, 28.663749864366345 ], [ 77.349357096354197, 28.668698459201412 ], [ 77.350764634874167, 28.682497490776935 ], [ 77.360468207465317, 28.683976236979191 ], [ 77.365404934353336, 28.687476603190127 ], [ 77.367309570312528, 28.693801540798635 ], [ 77.370227050781281, 28.697916666666693 ], [ 77.367309570312528, 28.702031792534747 ], [ 77.365791151258719, 28.716916910807317 ], [ 77.360468207465317, 28.71314290364586 ], [ 77.350915527343787, 28.711857096354191 ], [ 77.35, 28.72083333333336 ], [ 77.350567287868955, 28.727210489908877 ], [ 77.358900621202295, 28.736562771267387 ], [ 77.357766045464444, 28.743877156575547 ], [ 77.354635281033012, 28.74791666666669 ], [ 77.357766045464444, 28.751956176757837 ], [ 77.35892876519101, 28.794916788737005 ], [ 77.3625, 28.795833333333359 ], [ 77.361882527669309, 28.814660305447074 ], [ 77.358950805664094, 28.818673027886309 ], [ 77.357539198133708, 28.828372531467039 ], [ 77.347839694552988, 28.829784138997422 ], [ 77.342825317382847, 28.833447265625026 ], [ 77.341049194335966, 28.839660305447076 ], [ 77.333036634657148, 28.848893568250894 ], [ 77.327006361219645, 28.850617472330754 ], [ 77.321568806966184, 28.854966566297769 ], [ 77.320215861002637, 28.868826972113741 ], [ 77.317284138997422, 28.872839694552976 ], [ 77.316049194335974, 28.884070163302976 ], [ 77.324443223741355, 28.8937435574002 ], [ 77.321394856770866, 28.897916666666692 ], [ 77.3243825276693, 28.902006361219645 ], [ 77.325617472330762, 28.904635959201414 ], [ 77.321450805664099, 28.910339694552977 ], [ 77.320833333333368, 28.9125 ], [ 77.317311265733537, 28.913403998480931 ], [ 77.316099378797773, 28.929913330078151 ], [ 77.320266045464436, 28.935289510091174 ], [ 77.321400621202287, 28.946821424696207 ], [ 77.308900621202284, 28.960289510091172 ], [ 77.307766045464447, 28.967413330078152 ], [ 77.31193271213111, 28.972789510091172 ], [ 77.313067287868961, 28.981377156575547 ], [ 77.316206868489616, 28.98542819552954 ], [ 77.304733954535621, 28.997789510091174 ], [ 77.30359937879777, 29.00221048990888 ], [ 77.300468614366352, 29.00625 ], [ 77.303705851237012, 29.010426500108533 ], [ 77.294860500759583, 29.020178561740479 ], [ 77.2875, 29.020833333333361 ], [ 77.2875, 29.025 ], [ 77.288067287868955, 29.031377156575548 ], [ 77.291099378797782, 29.035289510091172 ], [ 77.292233954535618, 29.044618394639784 ], [ 77.283068847656281, 29.046970621744819 ], [ 77.286932712131104, 29.051956176757841 ], [ 77.288067287868955, 29.056377156575547 ], [ 77.291099378797782, 29.060289510091174 ], [ 77.2916666666667, 29.075 ], [ 77.291313340928852, 29.085757785373293 ], [ 77.277451578776081, 29.099645317925376 ], [ 77.264242214626762, 29.100353325737874 ], [ 77.260757785373301, 29.103813340928848 ], [ 77.258333333333368, 29.104166666666693 ], [ 77.259259711371556, 29.107406955295168 ], [ 77.265898301866358, 29.109305148654542 ], [ 77.267284138997425, 29.118826972113744 ], [ 77.27021586100264, 29.122839694552979 ], [ 77.271450805664088, 29.125469292534749 ], [ 77.267228190104206, 29.13125 ], [ 77.271164279513926, 29.1366383870443 ], [ 77.282676527235282, 29.138314141167562 ], [ 77.28333333333336, 29.15833333333336 ], [ 77.283938259548648, 29.160506015353761 ], [ 77.295228407118088, 29.172827317979628 ], [ 77.296438259548637, 29.177172682020426 ], [ 77.300443861219648, 29.182575310601155 ], [ 77.299199761284754, 29.190992906358534 ], [ 77.275837537977466, 29.192338222927546 ], [ 77.27439507378476, 29.200540669759143 ], [ 77.278561740451423, 29.206160651312963 ], [ 77.279771592881971, 29.209120856391088 ], [ 77.271438259548646, 29.218660651312963 ], [ 77.270833333333371, 29.225 ], [ 77.271400621202289, 29.231377156575551 ], [ 77.274432712131102, 29.235289510091174 ], [ 77.275567287868952, 29.239710489908884 ], [ 77.278599378797779, 29.243622843424507 ], [ 77.279733954535629, 29.248043823242217 ], [ 77.282864718967048, 29.252083333333363 ], [ 77.279733954535629, 29.256122843424507 ], [ 77.278599378797779, 29.260543823242216 ], [ 77.275567287868952, 29.26445617675784 ], [ 77.274432712131102, 29.284079996744822 ], [ 77.278698052300385, 29.289583333333361 ], [ 77.274735514322956, 29.294696214464004 ], [ 77.282672119140656, 29.296732923719649 ], [ 77.28333333333336, 29.304166666666696 ], [ 77.2875, 29.304166666666696 ], [ 77.2916666666667, 29.304166666666696 ], [ 77.292019992404548, 29.306591118706628 ], [ 77.295480007595515, 29.3100755479601 ], [ 77.296186659071211, 29.314214409722251 ], [ 77.289957004123295, 29.320475260416696 ], [ 77.2875, 29.320833333333361 ], [ 77.280066257052979, 29.321494547526072 ], [ 77.278599378797779, 29.327210489908882 ], [ 77.273996988932325, 29.332729254828589 ], [ 77.258333333333368, 29.333333333333364 ], [ 77.255908881293436, 29.333686659071212 ], [ 77.250359090169297, 29.339208814832929 ], [ 77.249646674262181, 29.343379550510011 ], [ 77.253813340928858, 29.347575547960098 ], [ 77.254519992404539, 29.355881076388918 ], [ 77.247932603624164, 29.362501356336836 ], [ 77.244091118706635, 29.358686659071211 ], [ 77.239952256944477, 29.357980007595515 ], [ 77.233691406250031, 29.364209832085532 ], [ 77.233333333333363, 29.366666666666696 ], [ 77.236855400933194, 29.367570495605499 ], [ 77.238067287868958, 29.384079996744823 ], [ 77.233900621202295, 29.389456176757843 ], [ 77.232766045464444, 29.396770562066003 ], [ 77.24109937879777, 29.406122843424509 ], [ 77.242233954535621, 29.418877156575551 ], [ 77.254564073350721, 29.432162136501766 ], [ 77.246426052517393, 29.43425038655602 ], [ 77.245833333333366, 29.458333333333364 ], [ 77.248043823242213, 29.458900621202286 ], [ 77.251956176757844, 29.461932712131109 ], [ 77.257937282986148, 29.463467746310794 ], [ 77.26306728786895, 29.470086669921905 ], [ 77.261932712131113, 29.481377156575551 ], [ 77.258801947699681, 29.485416666666698 ], [ 77.261932712131113, 29.489456176757844 ], [ 77.263350762261311, 29.494982401529978 ], [ 77.269982571072077, 29.49668426513675 ], [ 77.271684095594651, 29.503315734863314 ], [ 77.277210489908882, 29.50473395453562 ], [ 77.281122843424512, 29.507766045464439 ], [ 77.2916666666667, 29.508333333333365 ], [ 77.292233954535618, 29.514710489908886 ], [ 77.295266045464444, 29.518622843424509 ], [ 77.296400621202295, 29.523043823242219 ], [ 77.299432712131107, 29.526956176757842 ], [ 77.300567287868958, 29.543877156575551 ], [ 77.30359937879777, 29.547789510091178 ], [ 77.304733954535621, 29.557118394639787 ], [ 77.3, 29.558333333333366 ], [ 77.299382527669309, 29.56466013590498 ], [ 77.296450805664094, 29.568673197428417 ], [ 77.295215861002632, 29.579782274034319 ], [ 77.301361083984403, 29.587466091579891 ], [ 77.306173027886317, 29.583950975206193 ], [ 77.317135959201423, 29.582715691460535 ], [ 77.32331136067711, 29.587226867675813 ], [ 77.325617472330762, 29.59213578965932 ], [ 77.320565795898474, 29.599051411946647 ], [ 77.331326972113743, 29.600617641872862 ], [ 77.336764526367219, 29.604966566297776 ], [ 77.338117472330765, 29.618826802571647 ], [ 77.341109890408021, 29.622923278808624 ], [ 77.333890109592048, 29.631243387858106 ], [ 77.336882527669303, 29.635339864095084 ], [ 77.338117472330765, 29.644465467664961 ], [ 77.329883829752632, 29.646819559733103 ], [ 77.329166666666694, 29.654166666666697 ], [ 77.329733954535627, 29.656377156575552 ], [ 77.332766045464439, 29.660289510091179 ], [ 77.333900621202289, 29.667413330078158 ], [ 77.329733954535627, 29.672789510091178 ], [ 77.328599378797776, 29.677951727973124 ], [ 77.335543823242219, 29.679733954535621 ], [ 77.340698920355933, 29.683729214138488 ], [ 77.342517428927991, 29.690815734863314 ], [ 77.349338785807319, 29.692566257052984 ], [ 77.35, 29.7 ], [ 77.357346937391526, 29.700717163085969 ], [ 77.359305148654542, 29.707565138075118 ], [ 77.370039198133711, 29.709127468533019 ], [ 77.371635945638047, 29.720098198784754 ], [ 77.379166666666706, 29.720833333333367 ], [ 77.380485704210102, 29.724999830457932 ], [ 77.389556884765653, 29.732665337456631 ], [ 77.402109781901075, 29.734001329210102 ], [ 77.406223551432319, 29.736832004123297 ], [ 77.410443115234415, 29.738167995876768 ], [ 77.414556884765659, 29.740998670789963 ], [ 77.424141099717914, 29.742525566948817 ], [ 77.425667995876765, 29.752109781901076 ], [ 77.429834662543442, 29.758164978027377 ], [ 77.428498670789963, 29.760443115234409 ], [ 77.424748399522599, 29.765893215603331 ], [ 77.441666666666706, 29.766666666666701 ], [ 77.442284138997422, 29.777160135904982 ], [ 77.445215861002637, 29.781173197428419 ], [ 77.446450805664099, 29.783802456325986 ], [ 77.442284138997422, 29.789506530761752 ], [ 77.441049194335974, 29.792135789659323 ], [ 77.445215861002637, 29.797839864095085 ], [ 77.446450805664099, 29.800469122992656 ], [ 77.441399129231797, 29.807384745279982 ], [ 77.453372531467053, 29.809127468533021 ], [ 77.454784138997425, 29.81882680257165 ], [ 77.45771586100264, 29.822839864095087 ], [ 77.458950805664102, 29.831326802571649 ], [ 77.461943223741358, 29.835423278808626 ], [ 77.453987969292569, 29.844590928819478 ], [ 77.461769612630235, 29.846815829806893 ], [ 77.463117472330765, 29.859069993760883 ], [ 77.453869967990485, 29.869726901584237 ], [ 77.45, 29.870833333333366 ], [ 77.450353325737879, 29.885757785373297 ], [ 77.453813340928846, 29.889242214626769 ], [ 77.454519992404542, 29.89409111870663 ], [ 77.458318752712714, 29.897916666666703 ], [ 77.453813340928846, 29.902453782823386 ], [ 77.454519992404542, 29.906591118706633 ], [ 77.479519992404548, 29.931616210937534 ], [ 77.478813340928852, 29.944091118706631 ], [ 77.475014580620694, 29.9479166666667 ], [ 77.478813340928852, 29.951742214626769 ], [ 77.479524739583368, 29.956623501247865 ], [ 77.485075547960108, 29.962146674262186 ], [ 77.4875, 29.9625 ], [ 77.488067287868958, 29.977210489908888 ], [ 77.492062717013923, 29.982365587022603 ], [ 77.498043823242227, 29.983900621202292 ], [ 77.507716878255238, 29.992674255371128 ], [ 77.508900621202287, 30.015451727973126 ], [ 77.504166666666706, 30.016666666666701 ], [ 77.504166666666706, 30.020833333333368 ], [ 77.507695515950559, 30.021739027235277 ], [ 77.508900621202287, 30.039710489908888 ], [ 77.511932712131113, 30.043622843424515 ], [ 77.513067287868964, 30.046579996744828 ], [ 77.507937282986148, 30.053198920355939 ], [ 77.501006740993958, 30.054977586534324 ], [ 77.49943271213111, 30.059079996744828 ], [ 77.503599378797773, 30.064456176757847 ], [ 77.504166666666706, 30.066666666666684 ], [ 77.511554633246561, 30.067276509602898 ], [ 77.513029649522608, 30.071916368272603 ], [ 77.504696316189268, 30.081085035536059 ], [ 77.504166666666706, 30.083333333333353 ], [ 77.506377156575553, 30.083900621202293 ], [ 77.510289510091184, 30.086932712131112 ], [ 77.539710489908884, 30.088067287868959 ], [ 77.54375, 30.091197882758284 ], [ 77.549253336588578, 30.086932712131112 ], [ 77.55637715657555, 30.088067287868959 ], [ 77.560289510091181, 30.091099378797779 ], [ 77.573043823242216, 30.092233954535626 ], [ 77.576956176757847, 30.095266045464445 ], [ 77.582482571072077, 30.096684265136755 ], [ 77.584184095594651, 30.103315734863315 ], [ 77.589710489908896, 30.104733954535625 ], [ 77.601956176757852, 30.116099378797777 ], [ 77.607482571072083, 30.117517598470087 ], [ 77.609301079644126, 30.124604119194913 ], [ 77.614456176757841, 30.12859937879778 ], [ 77.628206719292564, 30.129822625054288 ], [ 77.63276604546445, 30.13528951009118 ], [ 77.634232923719651, 30.141005452473994 ], [ 77.648043823242219, 30.142233954535627 ], [ 77.651956176757849, 30.145266045464446 ], [ 77.6625, 30.145833333333368 ], [ 77.663467746310801, 30.149604119194915 ], [ 77.668622843424515, 30.153599378797779 ], [ 77.678247070312537, 30.154870944552986 ], [ 77.682766045464447, 30.160289510091182 ], [ 77.684301079644129, 30.166270785861581 ], [ 77.689456176757844, 30.170266045464444 ], [ 77.702210489908893, 30.171400621202292 ], [ 77.70625, 30.174531216091616 ], [ 77.711753336588572, 30.170266045464444 ], [ 77.728193155924515, 30.171472676595087 ], [ 77.732766045464444, 30.176956176757848 ], [ 77.733900621202295, 30.181377156575557 ], [ 77.745266045464447, 30.193622843424514 ], [ 77.746400621202298, 30.202210489908889 ], [ 77.74943271213111, 30.206122843424517 ], [ 77.750631035698817, 30.223993259006114 ], [ 77.781122843424512, 30.25359937879778 ], [ 77.787103949652817, 30.255134412977469 ], [ 77.791099378797782, 30.260289510091184 ], [ 77.792586263020866, 30.266083780924518 ], [ 77.801956176757855, 30.274432712131112 ], [ 77.807937282986146, 30.275967746310801 ], [ 77.81193271213111, 30.281122843424516 ], [ 77.813350762261322, 30.286649068196652 ], [ 77.816666666666706, 30.2875 ], [ 77.820833333333368, 30.2875 ], [ 77.823257785373301, 30.287146674262189 ], [ 77.826742214626776, 30.283686659071218 ], [ 77.835757785373303, 30.282980007595523 ], [ 77.839242214626779, 30.279519992404552 ], [ 77.844091118706629, 30.278813340928856 ], [ 77.847575547960105, 30.275353325737886 ], [ 77.85, 30.275 ], [ 77.849432712131119, 30.268622843424517 ], [ 77.846400621202292, 30.264710489908889 ], [ 77.845266045464442, 30.260289510091184 ], [ 77.829733954535627, 30.243877156575557 ], [ 77.828599378797776, 30.239456176757848 ], [ 77.821400621202287, 30.231377156575558 ], [ 77.82026604546445, 30.226956176757849 ], [ 77.816099378797773, 30.221579996744829 ], [ 77.817233954535624, 30.210289510091183 ], [ 77.821400621202287, 30.20491333007816 ], [ 77.82026604546445, 30.20195617675785 ], [ 77.817233954535624, 30.198043823242223 ], [ 77.816099378797773, 30.185289510091181 ], [ 77.800567287868958, 30.168877156575558 ], [ 77.799149237738746, 30.163350931803421 ], [ 77.792517428927994, 30.161649068196652 ], [ 77.791099378797782, 30.156122843424516 ], [ 77.788067287868955, 30.152210489908889 ], [ 77.786932712131119, 30.131122843424514 ], [ 77.783900621202292, 30.12721048990889 ], [ 77.782766045464442, 30.122789510091181 ], [ 77.779733954535629, 30.118877156575557 ], [ 77.778599378797779, 30.114456176757848 ], [ 77.775567287868967, 30.110543823242224 ], [ 77.774432712131116, 30.093622843424516 ], [ 77.763067287868964, 30.081377156575556 ], [ 77.7625, 30.070833333333368 ], [ 77.761649237738752, 30.067517598470086 ], [ 77.754804484049515, 30.065760972764792 ], [ 77.753599378797773, 30.047789510091182 ], [ 77.750567287868961, 30.043877156575554 ], [ 77.75, 30.0375 ], [ 77.75, 30.033333333333367 ], [ 77.753315904405412, 30.032482401529982 ], [ 77.754733954535624, 30.026956176757846 ], [ 77.75776604546445, 30.023043823242222 ], [ 77.758900621202287, 30.018622843424513 ], [ 77.761932712131113, 30.014710489908889 ], [ 77.763119167751768, 29.992657131618959 ], [ 77.768622843424509, 29.988067287868958 ], [ 77.778247070312531, 29.986795722113751 ], [ 77.782766045464442, 29.981377156575554 ], [ 77.783333333333374, 29.970833333333367 ], [ 77.783333333333374, 29.966666666666701 ], [ 77.790767076280417, 29.966005452473993 ], [ 77.792233954535632, 29.960289510091179 ], [ 77.795266045464444, 29.956377156575556 ], [ 77.796400621202295, 29.951956176757847 ], [ 77.799432712131107, 29.948043823242223 ], [ 77.800850762261319, 29.942517598470086 ], [ 77.807750447591189, 29.940746900770435 ], [ 77.816099378797773, 29.931377156575554 ], [ 77.817634412977469, 29.925395880805155 ], [ 77.822789510091184, 29.921400621202292 ], [ 77.827210489908893, 29.920266045464444 ], [ 77.835289510091187, 29.913067287868959 ], [ 77.840815904405417, 29.911649068196649 ], [ 77.842233954535629, 29.906122843424512 ], [ 77.845266045464442, 29.902210489908889 ], [ 77.845833333333374, 29.9 ], [ 77.846186659071222, 29.897575547960102 ], [ 77.853813340928852, 29.889924452039963 ], [ 77.8541666666667, 29.879166666666702 ], [ 77.854519992404548, 29.851742214626771 ], [ 77.857980007595529, 29.848257785373299 ], [ 77.858333333333377, 29.845833333333367 ], [ 77.854974365234412, 29.844971381293437 ], [ 77.853599378797782, 29.838714938693609 ], [ 77.861649237738746, 29.83664906819665 ], [ 77.863387383355075, 29.829875183105504 ], [ 77.874112616645007, 29.828458150227899 ], [ 77.875567287868961, 29.82278951009118 ], [ 77.878599378797787, 29.818877156575553 ], [ 77.879733954535624, 29.795086669921908 ], [ 77.874603949652808, 29.788467746310797 ], [ 77.870833333333366, 29.7875 ], [ 77.871400621202298, 29.772789510091179 ], [ 77.879733954535624, 29.76343722873267 ], [ 77.87797410753042, 29.758555094401075 ], [ 77.872916666666697, 29.754635450575119 ], [ 77.86875, 29.757864549424944 ], [ 77.864710489908887, 29.754733954535624 ], [ 77.858916219075553, 29.753246900770431 ], [ 77.850567287868955, 29.743877156575554 ], [ 77.849432712131119, 29.731122843424512 ], [ 77.845266045464442, 29.725746663411492 ], [ 77.846507093641534, 29.713396369086404 ], [ 77.854431152343793, 29.711362881130675 ], [ 77.850567287868955, 29.706377156575552 ], [ 77.85, 29.7 ], [ 77.852424452039969, 29.700353325737879 ], [ 77.855908881293445, 29.703813340928853 ], [ 77.858333333333377, 29.704166666666698 ], [ 77.86576707628042, 29.703505452473991 ], [ 77.866666666666703, 29.7 ], [ 77.867019992404551, 29.697575547960103 ], [ 77.870818752712708, 29.69375 ], [ 77.867019992404551, 29.689924452039964 ], [ 77.866666666666703, 29.6875 ], [ 77.867019992404551, 29.664242214626768 ], [ 77.874646674262195, 29.656591118706629 ], [ 77.875, 29.654166666666697 ], [ 77.864456176757855, 29.653599378797775 ], [ 77.860543823242224, 29.650567287868956 ], [ 77.855017428927994, 29.649149068196646 ], [ 77.853599378797782, 29.643622843424509 ], [ 77.842233954535629, 29.631377156575553 ], [ 77.841099378797779, 29.622789510091177 ], [ 77.837103949652814, 29.617634412977463 ], [ 77.831122843424509, 29.616099378797774 ], [ 77.816716851128504, 29.602623324924078 ], [ 77.82026604546445, 29.598043823242218 ], [ 77.821400621202287, 29.590641445583799 ], [ 77.799303860134586, 29.567557271321647 ], [ 77.793622843424515, 29.566099378797773 ], [ 77.785543823242222, 29.558900621202287 ], [ 77.776956176757849, 29.55776604546444 ], [ 77.774432712131116, 29.555381605360274 ], [ 77.779166666666697, 29.554166666666699 ], [ 77.786728583441871, 29.553395250108537 ], [ 77.7875, 29.545833333333363 ], [ 77.787853325737885, 29.543408881293434 ], [ 77.791313340928852, 29.539924452039962 ], [ 77.792019992404548, 29.501742214626766 ], [ 77.795480007595529, 29.498257785373294 ], [ 77.796186659071211, 29.476742214626768 ], [ 77.799985419379382, 29.472916666666698 ], [ 77.796186659071211, 29.469091118706629 ], [ 77.795480007595529, 29.464242214626765 ], [ 77.783686659071222, 29.45242445203996 ], [ 77.782980007595526, 29.447575547960099 ], [ 77.779519992404545, 29.444091118706627 ], [ 77.778813340928849, 29.4350755479601 ], [ 77.775353325737882, 29.431591118706628 ], [ 77.774641927083366, 29.426709832085535 ], [ 77.769091118706626, 29.421186659071211 ], [ 77.7625, 29.420833333333363 ], [ 77.761932712131113, 29.406122843424509 ], [ 77.754733954535624, 29.398043823242219 ], [ 77.753458319770004, 29.388387383355067 ], [ 77.745568847656287, 29.386362881130673 ], [ 77.74943271213111, 29.381377156575549 ], [ 77.75, 29.375 ], [ 77.749382527669312, 29.372839864095081 ], [ 77.746450805664097, 29.368826802571643 ], [ 77.74467468261723, 29.362613932291698 ], [ 77.739660305447089, 29.358950975206191 ], [ 77.734101698133713, 29.357361687554285 ], [ 77.732539198133722, 29.346627468533015 ], [ 77.721627468533029, 29.345039198133712 ], [ 77.720215861002643, 29.335339864095083 ], [ 77.713117472330765, 29.327160135904975 ], [ 77.7125, 29.320833333333361 ], [ 77.712853325737882, 29.305908881293433 ], [ 77.717019992404545, 29.301712883843344 ], [ 77.716313340928849, 29.297575547960101 ], [ 77.712853325737882, 29.294091118706625 ], [ 77.7125, 29.291666666666696 ], [ 77.685377671983545, 29.29101121690541 ], [ 77.6812889946832, 29.288155449761312 ], [ 77.678585137261322, 29.286844550238744 ], [ 77.667479112413233, 29.296292453342044 ], [ 77.665928480360279, 29.271556939019128 ], [ 77.639544338650211, 29.270177883572078 ], [ 77.634648301866349, 29.26675788031687 ], [ 77.632350328233542, 29.259316338433187 ], [ 77.627044338650208, 29.257677883572079 ], [ 77.617930094401075, 29.249924553765219 ], [ 77.616666666666703, 29.245833333333362 ], [ 77.617019992404551, 29.243408881293433 ], [ 77.621186659071213, 29.239212883843344 ], [ 77.620480007595518, 29.235075547960097 ], [ 77.617019992404551, 29.231591118706625 ], [ 77.616313340928855, 29.226742214626764 ], [ 77.608686659071211, 29.219091118706626 ], [ 77.608333333333363, 29.216666666666697 ], [ 77.601742214626768, 29.217019992404541 ], [ 77.598257785373292, 29.220480007595516 ], [ 77.591666666666697, 29.220833333333363 ], [ 77.590495469835105, 29.225397237141955 ], [ 77.577210489908893, 29.213067287868952 ], [ 77.575, 29.2125 ], [ 77.574470350477469, 29.210251702202719 ], [ 77.570303683810792, 29.205107455783448 ], [ 77.571362982855931, 29.197751702202719 ], [ 77.575529649522608, 29.192607455783449 ], [ 77.574048529730931, 29.188147650824682 ], [ 77.564418538411488, 29.18697052001956 ], [ 77.560416666666697, 29.183729214138484 ], [ 77.556240505642393, 29.187111748589437 ], [ 77.548081461588581, 29.179696146647164 ], [ 77.5416666666667, 29.179166666666696 ], [ 77.541313340928852, 29.168408881293431 ], [ 77.537146674262189, 29.164212883843344 ], [ 77.537853325737885, 29.143408881293432 ], [ 77.541313340928852, 29.13992445203996 ], [ 77.5416666666667, 29.133333333333361 ], [ 77.561489868164102, 29.132737562391522 ], [ 77.566099378797773, 29.127210489908883 ], [ 77.567233954535624, 29.118622843424507 ], [ 77.575567287868964, 29.109270562066001 ], [ 77.574432712131113, 29.089456176757839 ], [ 77.57056884765629, 29.084470621744821 ], [ 77.575, 29.083333333333361 ], [ 77.5743825276693, 29.077006361219645 ], [ 77.567284138997437, 29.068826972113744 ], [ 77.565864054362009, 29.059068467881971 ], [ 77.550803290473127, 29.057598198784749 ], [ 77.542222764756985, 29.047924126519124 ], [ 77.545215861002646, 29.043826972113742 ], [ 77.546450805664094, 29.039506361219644 ], [ 77.549438476562528, 29.035416666666695 ], [ 77.546450805664094, 29.031326972113742 ], [ 77.544971720377646, 29.021164279513915 ], [ 77.539660305447086, 29.017284138997422 ], [ 77.533447265625028, 29.015508015950548 ], [ 77.528549194335966, 29.008802625868082 ], [ 77.529784138997428, 29.006173027886312 ], [ 77.533407931857667, 29.001212565104193 ], [ 77.524382527669303, 28.998632134331626 ], [ 77.525617472330765, 28.989506361219647 ], [ 77.528549194335966, 28.985493638780408 ], [ 77.529784138997428, 28.98117302788631 ], [ 77.533633083767398, 28.97590433756513 ], [ 77.524074639214447, 28.974715508355061 ], [ 77.517135959201426, 28.979784138997424 ], [ 77.504950629340314, 28.978411187065998 ], [ 77.500617472330759, 28.972993638780409 ], [ 77.5, 28.97083333333336 ], [ 77.504733954535624, 28.969618394639784 ], [ 77.503599378797773, 28.93945617675784 ], [ 77.500567287868961, 28.935543823242213 ], [ 77.49943271213111, 28.931122843424504 ], [ 77.492233954535621, 28.923043823242214 ], [ 77.491666666666703, 28.920833333333359 ], [ 77.5, 28.920833333333359 ], [ 77.501214938693607, 28.925567287868951 ], [ 77.511570231119819, 28.924307929144991 ], [ 77.516099378797776, 28.918877156575547 ], [ 77.517369249131974, 28.909266493055583 ], [ 77.531122843424512, 28.896400621202282 ], [ 77.533333333333374, 28.895833333333361 ], [ 77.532980007595526, 28.876742214626763 ], [ 77.525013902452287, 28.868750678168428 ], [ 77.529519992404545, 28.864213053385441 ], [ 77.528813340928849, 28.860075547960093 ], [ 77.520480007595523, 28.851715766059055 ], [ 77.521186659071219, 28.847575547960094 ], [ 77.524646674262186, 28.844091118706622 ], [ 77.525353325737882, 28.839242214626761 ], [ 77.532980007595526, 28.831591118706623 ], [ 77.533333333333374, 28.825 ], [ 77.535757785373292, 28.824646674262176 ], [ 77.539242214626768, 28.821186659071206 ], [ 77.5416666666667, 28.820833333333358 ], [ 77.549100409613743, 28.820172119140651 ], [ 77.55, 28.816666666666691 ], [ 77.554166666666703, 28.816666666666691 ], [ 77.556414794921906, 28.817196316189261 ], [ 77.56971164279517, 28.829696316189263 ], [ 77.57422824435767, 28.828276909722248 ], [ 77.575529649522608, 28.822751871744817 ], [ 77.582803683810795, 28.814748128255232 ], [ 77.58408983018667, 28.809287516276068 ], [ 77.593585205078156, 28.800529649522595 ], [ 77.6041666666667, 28.8 ], [ 77.604519992404548, 28.789242214626761 ], [ 77.612146674262192, 28.781591118706622 ], [ 77.612853325737888, 28.776742214626761 ], [ 77.616313340928855, 28.773257785373289 ], [ 77.617019992404551, 28.768408881293428 ], [ 77.620480007595518, 28.764924452039956 ], [ 77.620833333333366, 28.745833333333358 ], [ 77.618622843424518, 28.745266045464433 ], [ 77.612513224283887, 28.740170966254365 ], [ 77.616099378797784, 28.73554382324221 ], [ 77.617233954535621, 28.731122843424505 ], [ 77.620266045464447, 28.727210489908877 ], [ 77.621400621202298, 28.724253336588568 ], [ 77.616270616319483, 28.717634412977453 ], [ 77.608940972222257, 28.715753173828148 ], [ 77.608333333333363, 28.7 ], [ 77.601742214626768, 28.699646674262176 ], [ 77.598257785373292, 28.696186659071206 ], [ 77.594120279947958, 28.69548000759551 ], [ 77.589924452039966, 28.699646674262176 ], [ 77.5875, 28.7 ], [ 77.586561414930586, 28.703283013237872 ], [ 77.580534532335108, 28.704784138997422 ], [ 77.578549194335977, 28.697839694552975 ], [ 77.574175347222251, 28.692370944552977 ], [ 77.556173027886317, 28.69104919433596 ], [ 77.552160305447089, 28.688117472330752 ], [ 77.541399129231806, 28.68655158148874 ], [ 77.545215861002646, 28.681326972113741 ], [ 77.546450805664094, 28.666197374131968 ], [ 77.542284138997431, 28.660493638780405 ], [ 77.5416666666667, 28.65416666666669 ] ] ] ] } }
]
}
