{
"type": "FeatureCollection",
"name": "Indo_Gangetic_Basin_polygon",
"crs": { "type": "name", "properties": { "name": "urn:ogc:def:crs:OGC:1.3:CRS84" } },
"features": [
{ "type": "Feature", "properties": { "fid": 1.0, "DN": 2 }, "geometry": { "type": "MultiPolygon", "coordinates": [ [ [ [ 69.19344628, 24.09276569 ], [ 68.72344628, 24.09276569 ], [ 68.06544628, 23.76376569 ], [ 67.92444628, 23.76376569 ], [ 67.87744628, 23.85776569 ], [ 67.59544628, 23.85776569 ], [ 67.36044628, 24.09276569 ], [ 67.31344628, 24.42176569 ], [ 67.21944628, 24.51576569 ], [ 67.26644628, 24.60976569 ], [ 67.17244628, 24.60976569 ], [ 67.17244628, 24.75076569 ], [ 67.50144628, 24.75076569 ], [ 67.54844628, 24.84476569 ], [ 67.64244628, 24.79776569 ], [ 67.87744628, 24.89176569 ], [ 68.25344628, 25.31476569 ], [ 68.25344628, 25.83176569 ], [ 68.15944628, 25.87876569 ], [ 68.06544628, 26.16076569 ], [ 67.40744628, 26.48976569 ], [ 67.40744628, 27.05376569 ], [ 67.50144628, 27.24176569 ], [ 67.54844628, 27.71176569 ], [ 67.36044628, 28.13476569 ], [ 67.36044628, 28.74576569 ], [ 67.45444628, 28.79276569 ], [ 67.50144628, 29.16876569 ], [ 67.73644628000001, 29.45076569 ], [ 67.83044628, 29.45076569 ], [ 67.83044628, 29.54476569 ], [ 68.15944628, 29.54476569 ], [ 68.15944628, 29.35676569 ], [ 68.34744628, 28.98076569 ], [ 68.81744628, 28.69876569 ], [ 69.52244628, 28.65176569 ], [ 69.85144628, 28.88676569 ], [ 69.85144628, 28.98076569 ], [ 70.03944628, 29.16876569 ], [ 70.03944628, 29.30976569 ], [ 70.13344628, 29.35676569 ], [ 70.18044628, 29.73276569 ], [ 70.32144628, 29.82676569 ], [ 70.32144628, 29.92076569 ], [ 70.41544628, 29.92076569 ], [ 70.60344628, 30.29676569 ], [ 70.60344628, 30.67276569 ], [ 70.50944628, 30.81376569 ], [ 70.41544628, 31.23676569 ], [ 70.46244628, 31.37776569 ], [ 70.32144628, 31.75376569 ], [ 70.36844628, 32.12976569 ], [ 70.50944628, 32.22376569 ], [ 70.97944628, 32.17676569 ], [ 71.12044628000001, 32.22376569 ], [ 71.21444628, 32.41176569 ], [ 71.30844628, 32.41176569 ], [ 71.30844628, 32.55276569 ], [ 70.93244628, 32.45876569 ], [ 70.65044628, 32.69376569 ], [ 70.65044628, 32.92876569 ], [ 70.74444628, 32.92876569 ], [ 70.79144628, 33.02276569 ], [ 70.97944628, 32.97576569 ], [ 71.07344628, 32.69376569 ], [ 71.21444628, 32.69376569 ], [ 71.30844628, 32.92876569 ], [ 71.54344628, 32.97576569 ], [ 71.77844628, 32.50576569 ], [ 71.91944628, 32.41176569 ], [ 72.24844628000001, 32.41176569 ], [ 72.38944628, 32.55276569 ], [ 72.67144628, 32.64676569 ], [ 73.04744628, 32.64676569 ], [ 73.09444628, 32.74076569 ], [ 73.32944628, 32.74076569 ], [ 73.32944628, 32.64676569 ], [ 73.42344628, 32.64676569 ], [ 73.51744628, 32.69376569 ], [ 73.47044628, 32.83476569 ], [ 73.65844628, 32.97576569 ], [ 73.65844628, 33.06976569 ], [ 73.94044628, 33.02276569 ], [ 73.94044628, 32.88176569 ], [ 74.78644628, 32.92876569 ], [ 74.92744628, 32.64676569 ], [ 75.44444628, 32.45876569 ], [ 75.67944628, 32.27076569 ], [ 75.67944628, 32.17676569 ], [ 75.86744628000001, 32.03576569 ], [ 75.86744628000001, 31.94176569 ], [ 75.77344628, 31.89476569 ], [ 75.86744628000001, 31.84776569 ], [ 76.00844628, 31.51876569 ], [ 76.19644628, 31.37776569 ], [ 76.19644628, 31.18976569 ], [ 76.38444628, 31.14276569 ], [ 76.33744628, 31.28376569 ], [ 76.24344628, 31.28376569 ], [ 76.29044628, 31.37776569 ], [ 76.14944628, 31.47176569 ], [ 76.14944628, 31.61276569 ], [ 76.71344628, 31.14276569 ], [ 76.71344628, 30.86076569 ], [ 76.85444628, 30.81376569 ], [ 76.85444628, 30.71976569 ], [ 76.99544628000001, 30.71976569 ], [ 77.08944628, 30.57876569 ], [ 77.18344628, 30.57876569 ], [ 77.23044628000001, 30.48476569 ], [ 77.418446280000012, 30.48476569 ], [ 77.46544628, 30.39076569 ], [ 77.55944628, 30.39076569 ], [ 77.55944628, 30.48476569 ], [ 77.70044628, 30.48476569 ], [ 77.653446280000011, 30.29676569 ], [ 77.74744628, 30.20276569 ], [ 77.888446280000011, 30.20276569 ], [ 77.98244628, 30.06176569 ], [ 78.07644628, 30.06176569 ], [ 78.07644628, 29.96776569 ], [ 78.40544628, 29.82676569 ], [ 78.64044628, 29.54476569 ], [ 78.82844628, 29.59176569 ], [ 78.87544628, 29.49776569 ], [ 79.11044628, 29.45076569 ], [ 79.25144628000001, 29.30976569 ], [ 79.62744628, 29.21576569 ], [ 79.72144628, 29.12176569 ], [ 80.19144628, 29.12176569 ], [ 80.19144628, 29.02776569 ], [ 80.47344628, 28.98076569 ], [ 80.84944628, 28.79276569 ], [ 81.037446280000012, 28.79276569 ], [ 81.31944628, 28.65176569 ], [ 81.460446280000014, 28.36976569 ], [ 81.695446280000013, 28.36976569 ], [ 81.78944628, 28.22876569 ], [ 82.165446280000012, 27.99376569 ], [ 82.72944628, 27.89976569 ], [ 82.77644628, 27.75876569 ], [ 83.10544628000001, 27.80576569 ], [ 83.57544628, 27.75876569 ], [ 83.716446280000014, 27.66476569 ], [ 84.56244628, 27.75876569 ], [ 84.656446280000011, 27.61776569 ], [ 84.79744628, 27.57076569 ], [ 84.75044628, 27.42976569 ], [ 84.51544628, 27.47676569 ], [ 84.609446280000014, 27.38276569 ], [ 84.891446280000011, 27.38276569 ], [ 85.22044628, 27.24176569 ], [ 85.36144628000001, 27.24176569 ], [ 85.40844628, 27.33576569 ], [ 85.784446280000012, 27.28876569 ], [ 85.73744628, 27.10076569 ], [ 86.11344628, 27.00676569 ], [ 86.395446280000016, 27.05376569 ], [ 86.48944628000001, 26.95976569 ], [ 86.395446280000016, 26.86576569 ], [ 86.53644628, 26.81876569 ], [ 87.288446280000016, 26.81876569 ], [ 87.66444628, 26.72476569 ], [ 88.41644628, 26.81876569 ], [ 88.463446280000014, 26.91276569 ], [ 88.933446280000013, 27.00676569 ], [ 89.074446280000018, 26.95976569 ], [ 89.121446280000015, 26.81876569 ], [ 89.45044628, 26.86576569 ], [ 89.544446280000017, 26.77176569 ], [ 89.92044628, 26.72476569 ], [ 90.15544628, 26.77176569 ], [ 90.296446280000012, 26.91276569 ], [ 90.954446280000013, 26.77176569 ], [ 91.75344628, 26.81876569 ], [ 91.94144628, 26.91276569 ], [ 92.36444628000001, 26.86576569 ], [ 92.505446280000015, 26.95976569 ], [ 93.633446280000015, 26.95976569 ], [ 93.77444628, 27.05376569 ], [ 93.82144628, 27.24176569 ], [ 94.103446280000014, 27.38276569 ], [ 94.24444628, 27.57076569 ], [ 94.43244628, 27.57076569 ], [ 95.18444628, 27.85276569 ], [ 95.32544628, 28.13476569 ], [ 95.79544628, 28.04076569 ], [ 95.98344628000001, 27.89976569 ], [ 95.936446280000013, 27.66476569 ], [ 95.842446280000019, 27.57076569 ], [ 95.56044628, 27.52376569 ], [ 95.513446280000011, 27.33576569 ], [ 95.32544628, 27.24176569 ], [ 95.231446280000014, 27.05376569 ], [ 94.949446280000018, 26.95976569 ], [ 94.90244628, 26.86576569 ], [ 94.526446280000016, 26.77176569 ], [ 94.24444628, 26.44276569 ], [ 94.150446280000011, 26.44276569 ], [ 94.150446280000011, 26.30176569 ], [ 94.056446280000017, 26.25476569 ], [ 93.96244628, 25.97276569 ], [ 93.77444628, 25.97276569 ], [ 93.868446280000015, 26.39576569 ], [ 93.82144628, 26.48976569 ], [ 93.72744628, 26.48976569 ], [ 93.72744628, 26.58376569 ], [ 93.022446280000011, 26.58376569 ], [ 92.83444628, 26.16076569 ], [ 93.210446280000014, 26.25476569 ], [ 93.210446280000014, 25.87876569 ], [ 93.06944628, 25.83176569 ], [ 92.693446280000018, 25.92576569 ], [ 92.552446280000012, 26.11376569 ], [ 91.659446280000012, 26.11376569 ], [ 91.56544628, 25.92576569 ], [ 90.296446280000012, 25.92576569 ], [ 90.24944628, 25.83176569 ], [ 90.10844628000001, 25.83176569 ], [ 89.87344628000001, 25.59676569 ], [ 89.87344628000001, 25.31476569 ], [ 90.39044628, 25.17376569 ], [ 92.03544628, 25.22076569 ], [ 92.270446280000016, 25.07976569 ], [ 92.92844628, 24.89176569 ], [ 93.022446280000011, 24.79776569 ], [ 92.975446280000014, 24.60976569 ], [ 92.83444628, 24.60976569 ], [ 92.693446280000018, 24.79776569 ], [ 92.64644628, 24.46876569 ], [ 92.552446280000012, 24.37476569 ], [ 92.552446280000012, 24.56276569 ], [ 92.45844628, 24.56276569 ], [ 92.41144628, 24.42176569 ], [ 92.41144628, 24.51576569 ], [ 92.270446280000016, 24.56276569 ], [ 92.223446280000019, 24.70376569 ], [ 92.223446280000019, 24.56276569 ], [ 92.03544628, 24.42176569 ], [ 92.03544628, 24.28076569 ], [ 91.894446280000011, 24.28076569 ], [ 91.894446280000011, 24.18676569 ], [ 91.612446280000015, 24.18676569 ], [ 91.659446280000012, 23.81076569 ], [ 91.56544628, 23.81076569 ], [ 91.56544628, 24.04576569 ], [ 91.47144628, 24.09276569 ], [ 91.377446280000015, 23.95176569 ], [ 91.23644628000001, 23.90476569 ], [ 91.14244628, 23.62276569 ], [ 91.23644628000001, 23.57576569 ], [ 91.23644628000001, 23.38776569 ], [ 91.330446280000018, 23.38776569 ], [ 91.330446280000018, 23.19976569 ], [ 91.51844628, 22.82376569 ], [ 91.47144628, 22.72976569 ], [ 91.28344628, 22.72976569 ], [ 91.28344628, 22.58876569 ], [ 90.954446280000013, 22.54176569 ], [ 90.907446280000016, 22.63576569 ], [ 90.766446280000011, 22.68276569 ], [ 90.766446280000011, 22.82376569 ], [ 90.67244628, 22.87076569 ], [ 90.67244628, 22.72976569 ], [ 90.86044628, 22.49476569 ], [ 90.86044628, 22.11876569 ], [ 90.719446280000014, 21.97776569 ], [ 90.531446280000011, 21.97776569 ], [ 90.484446280000014, 22.07176569 ], [ 90.39044628, 22.07176569 ], [ 90.296446280000012, 22.02476569 ], [ 90.296446280000012, 21.83676569 ], [ 90.10844628000001, 21.78976569 ], [ 89.87344628000001, 22.02476569 ], [ 89.87344628000001, 21.83676569 ], [ 89.68544628, 21.83676569 ], [ 89.73244628, 21.74276569 ], [ 89.544446280000017, 21.69576569 ], [ 89.49744628, 22.07176569 ], [ 89.45044628, 21.74276569 ], [ 89.21544628, 21.69576569 ], [ 89.168446280000012, 21.78976569 ], [ 89.074446280000018, 21.78976569 ], [ 89.02744628, 21.93076569 ], [ 89.02744628, 21.60176569 ], [ 88.74544628000001, 21.60176569 ], [ 88.698446280000013, 21.97776569 ], [ 88.60444628, 21.60176569 ], [ 88.510446280000011, 21.60176569 ], [ 88.510446280000011, 21.74276569 ], [ 88.463446280000014, 21.60176569 ], [ 88.275446280000011, 21.60176569 ], [ 88.181446280000017, 21.64876569 ], [ 88.13444628, 21.97776569 ], [ 88.040446280000012, 21.97776569 ], [ 88.040446280000012, 21.88376569 ], [ 87.85244628, 21.69576569 ], [ 87.147446280000011, 21.50776569 ], [ 86.912446280000012, 21.27276569 ], [ 86.81844628, 21.31976569 ], [ 86.865446280000015, 21.74276569 ], [ 87.335446280000014, 22.02476569 ], [ 87.47644628, 22.30676569 ], [ 87.42944628, 22.63576569 ], [ 87.52344628, 22.91776569 ], [ 87.52344628, 23.57576569 ], [ 87.61744628000001, 23.62276569 ], [ 87.66444628, 24.18676569 ], [ 87.805446280000012, 24.42176569 ], [ 87.805446280000012, 24.89176569 ], [ 87.758446280000015, 25.07976569 ], [ 87.61744628000001, 25.22076569 ], [ 87.42944628, 25.17376569 ], [ 87.42944628, 25.07976569 ], [ 87.288446280000016, 25.03276569 ], [ 87.24144628, 24.89176569 ], [ 86.58344628, 24.98576569 ], [ 86.53644628, 25.22076569 ], [ 86.442446280000013, 25.22076569 ], [ 86.207446280000013, 25.17376569 ], [ 86.207446280000013, 24.98576569 ], [ 85.925446280000017, 24.84476569 ], [ 84.79744628, 24.75076569 ], [ 84.186446280000013, 24.56276569 ], [ 83.99844628000001, 24.60976569 ], [ 84.09244628, 24.93876569 ], [ 83.15244628, 24.93876569 ], [ 82.823446280000013, 25.03276569 ], [ 82.21244628, 25.03276569 ], [ 82.11844628, 25.12676569 ], [ 82.02444628, 25.12676569 ], [ 81.930446280000012, 24.98576569 ], [ 81.74244628000001, 24.98576569 ], [ 81.60144628, 25.03276569 ], [ 81.64844628, 25.22076569 ], [ 81.460446280000014, 25.22076569 ], [ 81.36644628, 25.12676569 ], [ 80.89644628, 25.17376569 ], [ 80.61444628000001, 25.07976569 ], [ 80.567446280000013, 24.98576569 ], [ 80.42644628, 24.98576569 ], [ 80.097446280000014, 25.17376569 ], [ 79.95644628, 25.40876569 ], [ 79.58044628, 25.40876569 ], [ 79.48644628000001, 25.50276569 ], [ 79.25144628000001, 25.45576569 ], [ 79.06344628, 25.73776569 ], [ 78.40544628, 25.83176569 ], [ 78.311446280000013, 25.78476569 ], [ 78.07644628, 25.87876569 ], [ 78.07644628, 26.34876569 ], [ 77.98244628, 26.34876569 ], [ 77.93544628, 26.48976569 ], [ 77.70044628, 26.53676569 ], [ 77.653446280000011, 26.72476569 ], [ 77.46544628, 26.72476569 ], [ 77.18344628, 27.00676569 ], [ 76.948446280000013, 27.42976569 ], [ 76.61944628, 27.75876569 ], [ 76.57244628, 27.99376569 ], [ 76.47844628, 27.99376569 ], [ 76.38444628, 28.22876569 ], [ 75.96144628, 28.27576569 ], [ 75.67944628, 28.51076569 ], [ 75.58544628, 28.46376569 ], [ 75.162446280000012, 28.74576569 ], [ 74.92744628, 28.79276569 ], [ 74.69244628, 28.98076569 ], [ 74.41044628, 29.07476569 ], [ 74.36344628, 29.16876569 ], [ 74.17544628, 29.16876569 ], [ 74.08144628, 29.30976569 ], [ 73.89344628, 29.30976569 ], [ 73.79944628, 29.49776569 ], [ 73.70544628, 29.45076569 ], [ 73.61144628000001, 29.59176569 ], [ 73.42344628, 29.63876569 ], [ 73.28244628, 29.54476569 ], [ 72.20144628, 29.59176569 ], [ 71.91944628, 29.45076569 ], [ 71.44944628, 28.98076569 ], [ 71.12044628000001, 28.88676569 ], [ 70.93244628, 28.51076569 ], [ 70.27444628, 28.18176569 ], [ 70.13344628, 27.99376569 ], [ 69.89844628, 27.94676569 ], [ 69.61644628, 27.66476569 ], [ 69.38144628, 27.66476569 ], [ 69.14644628, 27.47676569 ], [ 69.14644628, 27.19476569 ], [ 69.05244628, 27.19476569 ], [ 69.00544628, 27.05376569 ], [ 68.95844628, 26.39576569 ], [ 69.47544628, 25.92576569 ], [ 69.61644628, 25.54976569 ], [ 69.85144628, 25.59676569 ], [ 69.85144628, 25.17376569 ], [ 69.47544628, 24.84476569 ], [ 69.33444628, 24.28076569 ], [ 69.19344628, 24.09276569 ] ] ], [ [ [ 78.17044628, 30.06176569 ], [ 78.12344628000001, 30.10876569 ], [ 78.311446280000013, 30.15576569 ], [ 78.311446280000013, 30.01476569 ], [ 78.17044628, 29.96776569 ], [ 78.17044628, 30.06176569 ] ] ], [ [ [ 90.86044628, 22.58876569 ], [ 90.907446280000016, 22.58876569 ], [ 90.954446280000013, 22.49476569 ], [ 90.86044628, 22.49476569 ], [ 90.86044628, 22.58876569 ] ] ] ] } }
]
}
