{
"type": "FeatureCollection",
"name": "metadata_selected_observation_wells",
"crs": { "type": "name", "properties": { "name": "urn:ogc:def:crs:EPSG::32643" } },
"features": [
{ "type": "Feature", "properties": { "well_id": "well_000", "y": 29.4112, "x": 77.42, "start_date": "1980-01-01T00:00:00", "end_date": "2015-11-01T00:00:00", "count_of_observations": 102, "min_value": 0.2, "max_value": 10.2, "mean_value": 3.249117647058823, "elevation": 245 }, "geometry": { "type": "Point", "coordinates": [ 734805.307685593259521, 3255980.477184977848083 ] } },
{ "type": "Feature", "properties": { "well_id": "well_002", "y": 29.44, "x": 77.47, "start_date": "1988-05-01T00:00:00", "end_date": "2015-11-01T00:00:00", "count_of_observations": 60, "min_value": 3.63, "max_value": 10.61, "mean_value": 6.0536666666666674, "elevation": 241 }, "geometry": { "type": "Point", "coordinates": [ 739590.549495885148644, 3259274.777235735207796 ] } },
{ "type": "Feature", "properties": { "well_id": "well_004", "y": 29.5908, "x": 77.4005, "start_date": "1989-11-01T00:00:00", "end_date": "2005-08-01T00:00:00", "count_of_observations": 55, "min_value": 2.95, "max_value": 10.5, "mean_value": 6.5383636363636368, "elevation": 250 }, "geometry": { "type": "Point", "coordinates": [ 732501.712027496076189, 3275850.050877233501524 ] } },
{ "type": "Feature", "properties": { "well_id": "well_005", "y": 29.2805, "x": 77.345, "start_date": "1993-05-01T00:00:00", "end_date": "2015-11-01T00:00:00", "count_of_observations": 84, "min_value": 0.82, "max_value": 13.08, "mean_value": 7.1286904761904752, "elevation": 235 }, "geometry": { "type": "Point", "coordinates": [ 727816.886150223086588, 3241344.211619993671775 ] } },
{ "type": "Feature", "properties": { "well_id": "well_008", "y": 29.17, "x": 77.29, "start_date": "1980-01-01T00:00:00", "end_date": "2005-05-01T00:00:00", "count_of_observations": 55, "min_value": 8.86, "max_value": 18.6, "mean_value": 14.334545454545454, "elevation": 232 }, "geometry": { "type": "Point", "coordinates": [ 722711.258974977303296, 3228990.401276301592588 ] } },
{ "type": "Feature", "properties": { "well_id": "well_010", "y": 29.3215, "x": 77.3539, "start_date": "1988-05-01T00:00:00", "end_date": "2015-11-01T00:00:00", "count_of_observations": 106, "min_value": 2.25, "max_value": 9.15, "mean_value": 6.2775471698113208, "elevation": 231 }, "geometry": { "type": "Point", "coordinates": [ 728590.349333055084571, 3245906.231928175315261 ] } },
{ "type": "Feature", "properties": { "well_id": "well_013", "y": 29.1845, "x": 77.51, "start_date": "1980-01-01T00:00:00", "end_date": "1994-11-01T00:00:00", "count_of_observations": 61, "min_value": 0.13, "max_value": 7.14, "mean_value": 2.6940983606557376, "elevation": 225 }, "geometry": { "type": "Point", "coordinates": [ 744079.669411396724172, 3231034.958353109657764 ] } },
{ "type": "Feature", "properties": { "well_id": "well_015", "y": 29.1845, "x": 77.51, "start_date": "1994-05-01T00:00:00", "end_date": "2013-11-01T00:00:00", "count_of_observations": 69, "min_value": 0.34, "max_value": 5.44, "mean_value": 3.3904347826086956, "elevation": 225 }, "geometry": { "type": "Point", "coordinates": [ 744079.669411396724172, 3231034.958353109657764 ] } },
{ "type": "Feature", "properties": { "well_id": "well_021", "y": 29.1318, "x": 77.44, "start_date": "1980-01-01T00:00:00", "end_date": "2008-05-01T00:00:00", "count_of_observations": 112, "min_value": 0.07, "max_value": 9.05, "mean_value": 2.258125, "elevation": 222 }, "geometry": { "type": "Point", "coordinates": [ 737391.743554516811855, 3225049.792603760492057 ] } },
{ "type": "Feature", "properties": { "well_id": "well_022", "y": 29.2042, "x": 77.4224, "start_date": "1993-05-01T00:00:00", "end_date": "2008-01-01T00:00:00", "count_of_observations": 55, "min_value": 2.73, "max_value": 6.44, "mean_value": 4.9843636363636366, "elevation": 232 }, "geometry": { "type": "Point", "coordinates": [ 735513.402005607495084, 3233039.679938584566116 ] } },
{ "type": "Feature", "properties": { "well_id": "well_023", "y": 29.2806, "x": 77.5615, "start_date": "1980-01-01T00:00:00", "end_date": "2005-08-01T00:00:00", "count_of_observations": 90, "min_value": 9.94, "max_value": 20.11, "mean_value": 12.864111111111111, "elevation": 233 }, "geometry": { "type": "Point", "coordinates": [ 748856.681686968542635, 3241796.176663841120899 ] } },
{ "type": "Feature", "properties": { "well_id": "well_024", "y": 29.2942, "x": 77.5924, "start_date": "1993-05-01T00:00:00", "end_date": "2015-11-01T00:00:00", "count_of_observations": 84, "min_value": 1.43, "max_value": 5.3, "mean_value": 3.2277380952380952, "elevation": 238 }, "geometry": { "type": "Point", "coordinates": [ 751826.377424119855277, 3243369.919867717660964 ] } },
{ "type": "Feature", "properties": { "well_id": "well_031", "y": 29.3635, "x": 77.5251, "start_date": "1993-05-01T00:00:00", "end_date": "2015-11-01T00:00:00", "count_of_observations": 88, "min_value": 0.9, "max_value": 6.05, "mean_value": 2.8413636363636363, "elevation": 239 }, "geometry": { "type": "Point", "coordinates": [ 745120.643980768509209, 3250909.051906548906118 ] } },
{ "type": "Feature", "properties": { "well_id": "well_032", "y": 29.3618, "x": 77.5124, "start_date": "1993-05-01T00:00:00", "end_date": "2008-05-01T00:00:00", "count_of_observations": 56, "min_value": 2.09, "max_value": 7.57, "mean_value": 4.2673214285714289, "elevation": 237 }, "geometry": { "type": "Point", "coordinates": [ 743891.449107056832872, 3250694.00034862337634 ] } },
{ "type": "Feature", "properties": { "well_id": "well_038", "y": 28.678772222222225, "x": 77.343475, "start_date": "1991-01-01T00:00:00", "end_date": "2006-11-01T00:00:00", "count_of_observations": 61, "min_value": 3.99, "max_value": 15.0, "mean_value": 8.0308196721311482, "elevation": 206 }, "geometry": { "type": "Point", "coordinates": [ 728991.118551780469716, 3174645.360715695656836 ] } },
{ "type": "Feature", "properties": { "well_id": "well_039", "y": 28.728280555555553, "x": 77.325558333333333, "start_date": "1987-01-01T00:00:00", "end_date": "2005-08-01T00:00:00", "count_of_observations": 58, "min_value": 10.7, "max_value": 15.05, "mean_value": 12.837931034482759, "elevation": 217 }, "geometry": { "type": "Point", "coordinates": [ 727132.850860989070497, 3180098.408095677848905 ] } },
{ "type": "Feature", "properties": { "well_id": "well_041", "y": 28.834541666666667, "x": 77.440836111111111, "start_date": "1991-01-01T00:00:00", "end_date": "2008-11-01T00:00:00", "count_of_observations": 69, "min_value": 3.0, "max_value": 7.94, "mean_value": 5.7249275362318839, "elevation": 222 }, "geometry": { "type": "Point", "coordinates": [ 738153.685237084515393, 3192101.91935268137604 ] } },
{ "type": "Feature", "properties": { "well_id": "well_044", "y": 29.063, "x": 77.4648, "start_date": "1989-01-01T00:00:00", "end_date": "2008-05-01T00:00:00", "count_of_observations": 68, "min_value": 5.66, "max_value": 14.57, "mean_value": 9.3419117647058822, "elevation": 214 }, "geometry": { "type": "Point", "coordinates": [ 739965.00342265504878, 3217473.810791463125497 ] } },
{ "type": "Feature", "properties": { "well_id": "well_048", "y": 29.05, "x": 77.52, "start_date": "1980-01-01T00:00:00", "end_date": "2007-05-01T00:00:00", "count_of_observations": 105, "min_value": 2.14, "max_value": 10.57, "mean_value": 6.0079047619047623, "elevation": 226 }, "geometry": { "type": "Point", "coordinates": [ 745371.722911702236161, 3216146.44158961577341 ] } },
{ "type": "Feature", "properties": { "well_id": "well_050", "y": 28.5907, "x": 77.42, "start_date": "1980-01-01T00:00:00", "end_date": "2005-08-01T00:00:00", "count_of_observations": 94, "min_value": 7.52, "max_value": 16.07, "mean_value": 12.190638297872342, "elevation": 200 }, "geometry": { "type": "Point", "coordinates": [ 736668.794605231145397, 3165032.806148608680815 ] } },
{ "type": "Feature", "properties": { "well_id": "well_053", "y": 29.083, "x": 77.373, "start_date": "1980-01-01T00:00:00", "end_date": "1996-08-01T00:00:00", "count_of_observations": 67, "min_value": 0.5, "max_value": 6.79, "mean_value": 3.2638805970149254, "elevation": 226 }, "geometry": { "type": "Point", "coordinates": [ 730980.239206245634705, 3219507.217961339745671 ] } },
{ "type": "Feature", "properties": { "well_id": "well_059", "y": 29.100433333333335, "x": 77.262952777777784, "start_date": "1980-01-01T00:00:00", "end_date": "1997-08-01T00:00:00", "count_of_observations": 73, "min_value": 4.63, "max_value": 13.04, "mean_value": 10.276849315068494, "elevation": 231 }, "geometry": { "type": "Point", "coordinates": [ 720228.437277753720991, 3221228.689391415100545 ] } },
{ "type": "Feature", "properties": { "well_id": "well_060", "y": 28.891452777777776, "x": 77.362316666666658, "start_date": "1989-01-01T00:00:00", "end_date": "2005-08-01T00:00:00", "count_of_observations": 52, "min_value": 8.2, "max_value": 15.42, "mean_value": 11.15, "elevation": 220 }, "geometry": { "type": "Point", "coordinates": [ 730364.506354635464959, 3198254.925887645687908 ] } }
]
}
