{
"type": "FeatureCollection",
"name": "metadata_selected_observation_wells_yearly",
"crs": { "type": "name", "properties": { "name": "urn:ogc:def:crs:EPSG::32643" } },
"features": [
{ "type": "Feature", "properties": { "well_id": "well_000", "y": 29.4112, "x": 77.42, "start_date": "1980-01-01T00:00:00", "end_date": "2015-11-01T00:00:00", "count_of_observations": 29, "min_value": 2.0233333333333334, "max_value": 10.2, "mean_value": 3.4446091954022986, "elevation": 245 }, "geometry": { "type": "Point", "coordinates": [ 734805.307685593259521, 3255980.477184977848083 ] } },
{ "type": "Feature", "properties": { "well_id": "well_002", "y": 29.44, "x": 77.47, "start_date": "1988-05-01T00:00:00", "end_date": "2015-11-01T00:00:00", "count_of_observations": 18, "min_value": 4.67, "max_value": 10.113333333333333, "mean_value": 6.3631018518518516, "elevation": 241 }, "geometry": { "type": "Point", "coordinates": [ 739590.549495885148644, 3259274.777235735207796 ] } },
{ "type": "Feature", "properties": { "well_id": "well_004", "y": 29.5908, "x": 77.4005, "start_date": "1989-11-01T00:00:00", "end_date": "2005-08-01T00:00:00", "count_of_observations": 16, "min_value": 4.655, "max_value": 10.5, "mean_value": 6.7081770833333332, "elevation": 250 }, "geometry": { "type": "Point", "coordinates": [ 732501.712027496076189, 3275850.050877233501524 ] } },
{ "type": "Feature", "properties": { "well_id": "well_005", "y": 29.2805, "x": 77.345, "start_date": "1993-05-01T00:00:00", "end_date": "2015-11-01T00:00:00", "count_of_observations": 23, "min_value": 2.9925, "max_value": 11.0, "mean_value": 7.2606159420289869, "elevation": 235 }, "geometry": { "type": "Point", "coordinates": [ 727816.886150223086588, 3241344.211619993671775 ] } },
{ "type": "Feature", "properties": { "well_id": "well_007", "y": 29.293, "x": 77.2936, "start_date": "1988-01-01T00:00:00", "end_date": "1998-08-01T00:00:00", "count_of_observations": 11, "min_value": 7.02, "max_value": 11.42, "mean_value": 9.2640909090909087, "elevation": 237 }, "geometry": { "type": "Point", "coordinates": [ 722794.809484306722879, 3242630.802832995075732 ] } },
{ "type": "Feature", "properties": { "well_id": "well_008", "y": 29.17, "x": 77.29, "start_date": "1980-01-01T00:00:00", "end_date": "2005-05-01T00:00:00", "count_of_observations": 16, "min_value": 9.6, "max_value": 18.6, "mean_value": 14.364489583333333, "elevation": 232 }, "geometry": { "type": "Point", "coordinates": [ 722711.258974977303296, 3228990.401276301592588 ] } },
{ "type": "Feature", "properties": { "well_id": "well_010", "y": 29.3215, "x": 77.3539, "start_date": "1988-05-01T00:00:00", "end_date": "2015-11-01T00:00:00", "count_of_observations": 28, "min_value": 3.555, "max_value": 8.5533333333333328, "mean_value": 6.2941071428571433, "elevation": 231 }, "geometry": { "type": "Point", "coordinates": [ 728590.349333055084571, 3245906.231928175315261 ] } },
{ "type": "Feature", "properties": { "well_id": "well_013", "y": 29.1845, "x": 77.51, "start_date": "1980-01-01T00:00:00", "end_date": "1994-11-01T00:00:00", "count_of_observations": 15, "min_value": 1.456, "max_value": 4.9025, "mean_value": 2.6990333333333334, "elevation": 225 }, "geometry": { "type": "Point", "coordinates": [ 744079.669411396724172, 3231034.958353109657764 ] } },
{ "type": "Feature", "properties": { "well_id": "well_015", "y": 29.1845, "x": 77.51, "start_date": "1994-05-01T00:00:00", "end_date": "2013-11-01T00:00:00", "count_of_observations": 20, "min_value": 1.9266666666666667, "max_value": 4.56, "mean_value": 3.4155833333333332, "elevation": 225 }, "geometry": { "type": "Point", "coordinates": [ 744079.669411396724172, 3231034.958353109657764 ] } },
{ "type": "Feature", "properties": { "well_id": "well_021", "y": 29.1318, "x": 77.44, "start_date": "1980-01-01T00:00:00", "end_date": "2008-05-01T00:00:00", "count_of_observations": 29, "min_value": 1.5225, "max_value": 9.05, "mean_value": 2.4541724137931031, "elevation": 222 }, "geometry": { "type": "Point", "coordinates": [ 737391.743554516811855, 3225049.792603760492057 ] } },
{ "type": "Feature", "properties": { "well_id": "well_022", "y": 29.2042, "x": 77.4224, "start_date": "1993-05-01T00:00:00", "end_date": "2008-01-01T00:00:00", "count_of_observations": 16, "min_value": 3.436666666666667, "max_value": 5.9, "mean_value": 5.0183854166666659, "elevation": 232 }, "geometry": { "type": "Point", "coordinates": [ 735513.402005607495084, 3233039.679938584566116 ] } },
{ "type": "Feature", "properties": { "well_id": "well_023", "y": 29.2806, "x": 77.5615, "start_date": "1980-01-01T00:00:00", "end_date": "2005-08-01T00:00:00", "count_of_observations": 25, "min_value": 10.865, "max_value": 20.11, "mean_value": 13.08288, "elevation": 233 }, "geometry": { "type": "Point", "coordinates": [ 748856.681686968542635, 3241796.176663841120899 ] } },
{ "type": "Feature", "properties": { "well_id": "well_024", "y": 29.2942, "x": 77.5924, "start_date": "1993-05-01T00:00:00", "end_date": "2015-11-01T00:00:00", "count_of_observations": 23, "min_value": 2.66, "max_value": 3.9, "mean_value": 3.2176449275362318, "elevation": 238 }, "geometry": { "type": "Point", "coordinates": [ 751826.377424119855277, 3243369.919867717660964 ] } },
{ "type": "Feature", "properties": { "well_id": "well_026", "y": 29.2742, "x": 77.483, "start_date": "1989-01-01T00:00:00", "end_date": "2000-08-01T00:00:00", "count_of_observations": 12, "min_value": 3.9625, "max_value": 5.27, "mean_value": 4.6435416666666667, "elevation": 229 }, "geometry": { "type": "Point", "coordinates": [ 741242.690695395693183, 3240922.368674407713115 ] } },
{ "type": "Feature", "properties": { "well_id": "well_028", "y": 29.281, "x": 77.42, "start_date": "1980-01-01T00:00:00", "end_date": "1989-05-01T00:00:00", "count_of_observations": 10, "min_value": 3.386, "max_value": 4.9775, "mean_value": 4.0701, "elevation": 237 }, "geometry": { "type": "Point", "coordinates": [ 735104.235873321304098, 3241547.951109579298645 ] } },
{ "type": "Feature", "properties": { "well_id": "well_031", "y": 29.3635, "x": 77.5251, "start_date": "1993-05-01T00:00:00", "end_date": "2015-11-01T00:00:00", "count_of_observations": 23, "min_value": 1.6225, "max_value": 5.65, "mean_value": 2.8991511387163564, "elevation": 239 }, "geometry": { "type": "Point", "coordinates": [ 745120.643980768509209, 3250909.051906548906118 ] } },
{ "type": "Feature", "properties": { "well_id": "well_032", "y": 29.3618, "x": 77.5124, "start_date": "1993-05-01T00:00:00", "end_date": "2008-05-01T00:00:00", "count_of_observations": 16, "min_value": 3.0933333333333333, "max_value": 7.57, "mean_value": 4.3327083333333336, "elevation": 237 }, "geometry": { "type": "Point", "coordinates": [ 743891.449107056832872, 3250694.00034862337634 ] } },
{ "type": "Feature", "properties": { "well_id": "well_035", "y": 29.1742, "x": 77.3318, "start_date": "1993-05-01T00:00:00", "end_date": "2005-08-01T00:00:00", "count_of_observations": 13, "min_value": 11.035, "max_value": 14.53, "mean_value": 12.690128205128207, "elevation": 225 }, "geometry": { "type": "Point", "coordinates": [ 726768.40450023743324, 3229535.9231530232355 ] } },
{ "type": "Feature", "properties": { "well_id": "well_038", "y": 28.678772222222225, "x": 77.343475, "start_date": "1991-01-01T00:00:00", "end_date": "2006-11-01T00:00:00", "count_of_observations": 16, "min_value": 5.81, "max_value": 15.0, "mean_value": 8.2130208333333332, "elevation": 206 }, "geometry": { "type": "Point", "coordinates": [ 728991.118551780469716, 3174645.360715695656836 ] } },
{ "type": "Feature", "properties": { "well_id": "well_039", "y": 28.728280555555553, "x": 77.325558333333333, "start_date": "1987-01-01T00:00:00", "end_date": "2005-08-01T00:00:00", "count_of_observations": 16, "min_value": 11.103333333333333, "max_value": 15.05, "mean_value": 12.917604166666667, "elevation": 217 }, "geometry": { "type": "Point", "coordinates": [ 727132.850860989070497, 3180098.408095677848905 ] } },
{ "type": "Feature", "properties": { "well_id": "well_040", "y": 28.770366666666664, "x": 77.498841666666664, "start_date": "1987-01-01T00:00:00", "end_date": "2009-11-01T00:00:00", "count_of_observations": 14, "min_value": 1.89, "max_value": 6.53, "mean_value": 4.4657142857142853, "elevation": 204 }, "geometry": { "type": "Point", "coordinates": [ 743964.795803799992427, 3185106.213933920487761 ] } },
{ "type": "Feature", "properties": { "well_id": "well_041", "y": 28.834541666666667, "x": 77.440836111111111, "start_date": "1991-01-01T00:00:00", "end_date": "2008-11-01T00:00:00", "count_of_observations": 18, "min_value": 3.97, "max_value": 7.0425, "mean_value": 5.7296296296296294, "elevation": 222 }, "geometry": { "type": "Point", "coordinates": [ 738153.685237084515393, 3192101.91935268137604 ] } },
{ "type": "Feature", "properties": { "well_id": "well_042", "y": 28.668736111111112, "x": 77.45331111111112, "start_date": "1980-01-01T00:00:00", "end_date": "1993-01-01T00:00:00", "count_of_observations": 14, "min_value": 11.015, "max_value": 17.18, "mean_value": 14.555166666666667, "elevation": 214 }, "geometry": { "type": "Point", "coordinates": [ 739750.034425897873007, 3173748.744002589024603 ] } },
{ "type": "Feature", "properties": { "well_id": "well_044", "y": 29.063, "x": 77.4648, "start_date": "1989-01-01T00:00:00", "end_date": "2008-05-01T00:00:00", "count_of_observations": 20, "min_value": 6.8175, "max_value": 14.57, "mean_value": 9.6695, "elevation": 214 }, "geometry": { "type": "Point", "coordinates": [ 739965.00342265504878, 3217473.810791463125497 ] } },
{ "type": "Feature", "properties": { "well_id": "well_048", "y": 29.05, "x": 77.52, "start_date": "1980-01-01T00:00:00", "end_date": "2007-05-01T00:00:00", "count_of_observations": 28, "min_value": 4.115, "max_value": 9.255, "mean_value": 6.1269761904761912, "elevation": 226 }, "geometry": { "type": "Point", "coordinates": [ 745371.722911702236161, 3216146.44158961577341 ] } },
{ "type": "Feature", "properties": { "well_id": "well_050", "y": 28.5907, "x": 77.42, "start_date": "1980-01-01T00:00:00", "end_date": "2005-08-01T00:00:00", "count_of_observations": 26, "min_value": 8.134, "max_value": 16.07, "mean_value": 12.249769230769232, "elevation": 200 }, "geometry": { "type": "Point", "coordinates": [ 736668.794605231145397, 3165032.806148608680815 ] } },
{ "type": "Feature", "properties": { "well_id": "well_053", "y": 29.083, "x": 77.373, "start_date": "1980-01-01T00:00:00", "end_date": "1996-08-01T00:00:00", "count_of_observations": 17, "min_value": 2.086, "max_value": 4.2966666666666669, "mean_value": 3.2881568627450983, "elevation": 226 }, "geometry": { "type": "Point", "coordinates": [ 730980.239206245634705, 3219507.217961339745671 ] } },
{ "type": "Feature", "properties": { "well_id": "well_059", "y": 29.100433333333335, "x": 77.262952777777784, "start_date": "1980-01-01T00:00:00", "end_date": "1997-08-01T00:00:00", "count_of_observations": 18, "min_value": 8.47, "max_value": 13.04, "mean_value": 10.38561111111111, "elevation": 231 }, "geometry": { "type": "Point", "coordinates": [ 720228.437277753720991, 3221228.689391415100545 ] } },
{ "type": "Feature", "properties": { "well_id": "well_060", "y": 28.891452777777776, "x": 77.362316666666658, "start_date": "1989-01-01T00:00:00", "end_date": "2005-08-01T00:00:00", "count_of_observations": 15, "min_value": 9.625, "max_value": 15.42, "mean_value": 11.4745, "elevation": 220 }, "geometry": { "type": "Point", "coordinates": [ 730364.506354635464959, 3198254.925887645687908 ] } },
{ "type": "Feature", "properties": { "well_id": "well_061", "y": 28.939138888888888, "x": 77.369211111111099, "start_date": "2004-05-01T00:00:00", "end_date": "2014-05-01T00:00:00", "count_of_observations": 11, "min_value": 15.123333333333335, "max_value": 25.536666666666665, "mean_value": 21.184621212121215, "elevation": 224 }, "geometry": { "type": "Point", "coordinates": [ 730931.294110753340647, 3203553.918622732162476 ] } },
{ "type": "Feature", "properties": { "well_id": "well_063", "y": 29.891645277777776, "x": 77.687833888888889, "start_date": "1998-10-01T00:00:00", "end_date": "2015-10-01T00:00:00", "count_of_observations": 17, "min_value": 4.525, "max_value": 13.44, "mean_value": 9.7920588235294126, "elevation": 271 }, "geometry": { "type": "Point", "coordinates": [ 759564.779947515227832, 3309814.448802738450468 ] } },
{ "type": "Feature", "properties": { "well_id": "well_064", "y": 29.898789444444443, "x": 77.65981, "start_date": "1999-10-01T00:00:00", "end_date": "2015-10-01T00:00:00", "count_of_observations": 10, "min_value": 6.1, "max_value": 13.95, "mean_value": 10.8905, "elevation": 270 }, "geometry": { "type": "Point", "coordinates": [ 756839.175977108650841, 3310543.490921223536134 ] } },
{ "type": "Feature", "properties": { "well_id": "well_066", "y": 29.95, "x": 77.61666666666666, "start_date": "1998-10-01T00:00:00", "end_date": "2015-10-01T00:00:00", "count_of_observations": 13, "min_value": 3.05, "max_value": 12.345, "mean_value": 7.385, "elevation": 272 }, "geometry": { "type": "Point", "coordinates": [ 752542.209459907258861, 3316125.240881385281682 ] } },
{ "type": "Feature", "properties": { "well_id": "well_078", "y": 29.681111111111111, "x": 77.680555555555557, "start_date": "1998-10-01T00:00:00", "end_date": "2014-10-01T00:00:00", "count_of_observations": 17, "min_value": 2.05, "max_value": 5.85, "mean_value": 3.7532352941176472, "elevation": 254 }, "geometry": { "type": "Point", "coordinates": [ 759404.52236288622953, 3286456.859994519967586 ] } },
{ "type": "Feature", "properties": { "well_id": "well_079", "y": 29.66888888888889, "x": 77.785, "start_date": "1998-10-01T00:00:00", "end_date": "2014-10-01T00:00:00", "count_of_observations": 17, "min_value": 0.925, "max_value": 18.05, "mean_value": 3.3517647058823528, "elevation": 255 }, "geometry": { "type": "Point", "coordinates": [ 769548.534534386591986, 3285340.774997293483466 ] } },
{ "type": "Feature", "properties": { "well_id": "well_106", "y": 29.795738055555557, "x": 77.613413333333327, "start_date": "1999-10-01T00:00:00", "end_date": "2014-10-01T00:00:00", "count_of_observations": 15, "min_value": 8.05, "max_value": 14.58, "mean_value": 11.723666666666668, "elevation": 263 }, "geometry": { "type": "Point", "coordinates": [ 752616.921094584278762, 3299015.910357776097953 ] } },
{ "type": "Feature", "properties": { "well_id": "well_107", "y": 29.795833333333334, "x": 77.625, "start_date": "1998-10-01T00:00:00", "end_date": "2015-10-01T00:00:00", "count_of_observations": 16, "min_value": 3.945, "max_value": 8.27, "mean_value": 6.295625, "elevation": 265 }, "geometry": { "type": "Point", "coordinates": [ 753737.065711266128346, 3299051.941409305669367 ] } },
{ "type": "Feature", "properties": { "well_id": "well_110", "y": 29.816111111111113, "x": 77.676388888888894, "start_date": "1998-10-01T00:00:00", "end_date": "2015-10-01T00:00:00", "count_of_observations": 18, "min_value": 6.3, "max_value": 12.01, "mean_value": 9.455, "elevation": 261 }, "geometry": { "type": "Point", "coordinates": [ 758653.99209078704007, 3301414.383910376112908 ] } },
{ "type": "Feature", "properties": { "well_id": "well_120", "y": 29.701388888888889, "x": 77.424444444444447, "start_date": "1998-10-01T00:00:00", "end_date": "2015-10-01T00:00:00", "count_of_observations": 18, "min_value": 2.96, "max_value": 7.08, "mean_value": 5.0847222222222221, "elevation": 258 }, "geometry": { "type": "Point", "coordinates": [ 734564.829820230603218, 3288157.445280291140079 ] } },
{ "type": "Feature", "properties": { "well_id": "well_128", "y": 29.944242777777777, "x": 77.708481944444443, "start_date": "2005-10-01T00:00:00", "end_date": "2015-10-01T00:00:00", "count_of_observations": 10, "min_value": 15.5, "max_value": 19.5, "mean_value": 17.6675, "elevation": 273 }, "geometry": { "type": "Point", "coordinates": [ 761421.924095401773229, 3315692.750471943989396 ] } },
{ "type": "Feature", "properties": { "well_id": "well_130", "y": 30.05, "x": 77.583333333333329, "start_date": "1998-10-01T00:00:00", "end_date": "2015-10-01T00:00:00", "count_of_observations": 17, "min_value": 0.8, "max_value": 5.5, "mean_value": 2.5547058823529416, "elevation": 282 }, "geometry": { "type": "Point", "coordinates": [ 749073.899716131738387, 3327138.765239569824189 ] } },
{ "type": "Feature", "properties": { "well_id": "well_131", "y": 30.033333333333335, "x": 77.625, "start_date": "1998-10-01T00:00:00", "end_date": "2015-10-01T00:00:00", "count_of_observations": 13, "min_value": 3.02, "max_value": 8.15, "mean_value": 5.296153846153846, "elevation": 286 }, "geometry": { "type": "Point", "coordinates": [ 753135.032117804279551, 3325382.507792140822858 ] } },
{ "type": "Feature", "properties": { "well_id": "well_147", "y": 29.822970277777777, "x": 77.479103888888886, "start_date": "1998-10-01T00:00:00", "end_date": "2015-10-01T00:00:00", "count_of_observations": 13, "min_value": 2.93, "max_value": 21.31, "mean_value": 7.2480769230769235, "elevation": 264 }, "geometry": { "type": "Point", "coordinates": [ 739565.12646638113074, 3301747.834441889543086 ] } },
{ "type": "Feature", "properties": { "well_id": "well_148", "y": 29.83344, "x": 77.479675, "start_date": "2006-05-01T00:00:00", "end_date": "2015-10-01T00:00:00", "count_of_observations": 10, "min_value": 3.835, "max_value": 17.395, "mean_value": 7.2625, "elevation": 265 }, "geometry": { "type": "Point", "coordinates": [ 739595.331722069066018, 3302909.675995783414692 ] } },
{ "type": "Feature", "properties": { "well_id": "well_158", "y": 29.3088825, "x": 77.382189722222222, "start_date": "1998-05-01T00:00:00", "end_date": "2010-10-01T00:00:00", "count_of_observations": 13, "min_value": 7.905, "max_value": 22.305, "mean_value": 17.11269230769231, "elevation": 236 }, "geometry": { "type": "Point", "coordinates": [ 731366.914222978521138, 3244563.274165781680495 ] } },
{ "type": "Feature", "properties": { "well_id": "well_160", "y": 29.325, "x": 77.308333333333337, "start_date": "1998-05-01T00:00:00", "end_date": "2015-10-01T00:00:00", "count_of_observations": 14, "min_value": 6.61, "max_value": 19.61, "mean_value": 13.656071428571428, "elevation": 234 }, "geometry": { "type": "Point", "coordinates": [ 724156.383998687728308, 3246205.945903508458287 ] } },
{ "type": "Feature", "properties": { "well_id": "well_176", "y": 29.6175, "x": 77.429166666666674, "start_date": "1999-05-01T00:00:00", "end_date": "2015-10-01T00:00:00", "count_of_observations": 16, "min_value": 5.985, "max_value": 13.435, "mean_value": 10.411875, "elevation": 251 }, "geometry": { "type": "Point", "coordinates": [ 735217.06283504026942, 3278867.65901230275631 ] } },
{ "type": "Feature", "properties": { "well_id": "well_177", "y": 29.58861111111111, "x": 77.4225, "start_date": "1999-05-01T00:00:00", "end_date": "2015-10-01T00:00:00", "count_of_observations": 17, "min_value": 5.26, "max_value": 11.335, "mean_value": 8.3741176470588243, "elevation": 250 }, "geometry": { "type": "Point", "coordinates": [ 734638.254883982473984, 3275651.73330091452226 ] } },
{ "type": "Feature", "properties": { "well_id": "well_184", "y": 29.468611111111109, "x": 77.585555555555544, "start_date": "1998-05-01T00:00:00", "end_date": "2013-10-01T00:00:00", "count_of_observations": 15, "min_value": 3.055, "max_value": 10.045, "mean_value": 7.292, "elevation": 247 }, "geometry": { "type": "Point", "coordinates": [ 750732.906512081623077, 3262689.841723010875285 ] } },
{ "type": "Feature", "properties": { "well_id": "well_185", "y": 29.489166666666666, "x": 77.528888888888886, "start_date": "1998-05-01T00:00:00", "end_date": "2014-05-01T00:00:00", "count_of_observations": 16, "min_value": 4.0, "max_value": 11.28, "mean_value": 7.8246875, "elevation": 245 }, "geometry": { "type": "Point", "coordinates": [ 745186.284576315782033, 3264847.758411087095737 ] } },
{ "type": "Feature", "properties": { "well_id": "well_188", "y": 29.435277777777777, "x": 77.631388888888878, "start_date": "1999-10-01T00:00:00", "end_date": "2015-10-01T00:00:00", "count_of_observations": 16, "min_value": 5.65, "max_value": 12.95, "mean_value": 8.871875, "elevation": 244 }, "geometry": { "type": "Point", "coordinates": [ 755262.686143174185418, 3259094.168816091958433 ] } },
{ "type": "Feature", "properties": { "well_id": "well_192", "y": 29.465277777777779, "x": 77.628888888888881, "start_date": "1998-05-01T00:00:00", "end_date": "2015-05-01T00:00:00", "count_of_observations": 14, "min_value": 4.22, "max_value": 11.21, "mean_value": 8.1289285714285722, "elevation": 244 }, "geometry": { "type": "Point", "coordinates": [ 754945.000374566530809, 3262414.479260015301406 ] } },
{ "type": "Feature", "properties": { "well_id": "well_194", "y": 29.3, "x": 77.408333333333346, "start_date": "1998-05-01T00:00:00", "end_date": "2015-10-01T00:00:00", "count_of_observations": 15, "min_value": 13.875, "max_value": 27.18, "mean_value": 20.191, "elevation": 237 }, "geometry": { "type": "Point", "coordinates": [ 733927.125322967418469, 3243630.677358380053192 ] } },
{ "type": "Feature", "properties": { "well_id": "well_195", "y": 29.286568333333335, "x": 77.438096944444453, "start_date": "1999-05-01T00:00:00", "end_date": "2014-05-01T00:00:00", "count_of_observations": 13, "min_value": 1.975, "max_value": 30.2, "mean_value": 20.944615384615382, "elevation": 237 }, "geometry": { "type": "Point", "coordinates": [ 736850.063455583993345, 3242201.682812342885882 ] } },
{ "type": "Feature", "properties": { "well_id": "well_197", "y": 29.319444444444443, "x": 77.458333333333343, "start_date": "1999-10-01T00:00:00", "end_date": "2015-10-01T00:00:00", "count_of_observations": 14, "min_value": 2.555, "max_value": 30.85, "mean_value": 18.85, "elevation": 235 }, "geometry": { "type": "Point", "coordinates": [ 738739.991769005777314, 3245887.12824960751459 ] } },
{ "type": "Feature", "properties": { "well_id": "well_201", "y": 29.56388888888889, "x": 77.530277777777783, "start_date": "1998-05-01T00:00:00", "end_date": "2010-10-01T00:00:00", "count_of_observations": 13, "min_value": 4.435, "max_value": 7.74, "mean_value": 6.056923076923078, "elevation": 245 }, "geometry": { "type": "Point", "coordinates": [ 745140.589258232037537, 3273134.104661566205323 ] } },
{ "type": "Feature", "properties": { "well_id": "well_202", "y": 29.536111111111111, "x": 77.581944444444446, "start_date": "1998-05-01T00:00:00", "end_date": "2015-10-01T00:00:00", "count_of_observations": 18, "min_value": 3.76, "max_value": 7.675, "mean_value": 6.1402777777777775, "elevation": 249 }, "geometry": { "type": "Point", "coordinates": [ 750216.423443680629134, 3270164.988338996656239 ] } },
{ "type": "Feature", "properties": { "well_id": "well_203", "y": 29.606111111111112, "x": 77.594166666666666, "start_date": "1999-05-01T00:00:00", "end_date": "2013-10-01T00:00:00", "count_of_observations": 15, "min_value": 1.745, "max_value": 5.65, "mean_value": 3.3253333333333335, "elevation": 251 }, "geometry": { "type": "Point", "coordinates": [ 751227.782867205212824, 3277951.562054394744337 ] } },
{ "type": "Feature", "properties": { "well_id": "well_204", "y": 29.5575, "x": 77.561388888888885, "start_date": "1998-05-01T00:00:00", "end_date": "2009-05-01T00:00:00", "count_of_observations": 12, "min_value": 3.65, "max_value": 6.5, "mean_value": 5.4641666666666664, "elevation": 240 }, "geometry": { "type": "Point", "coordinates": [ 748171.385692585608922, 3272491.99103398155421 ] } },
{ "type": "Feature", "properties": { "well_id": "well_213", "y": 29.273333333333333, "x": 77.606388888888887, "start_date": "1998-05-01T00:00:00", "end_date": "2015-10-01T00:00:00", "count_of_observations": 18, "min_value": 8.185, "max_value": 12.24, "mean_value": 10.326944444444443, "elevation": 236 }, "geometry": { "type": "Point", "coordinates": [ 753237.258810034953058, 3241086.914168260525912 ] } },
{ "type": "Feature", "properties": { "well_id": "well_221", "y": 29.40111111111111, "x": 77.685833333333335, "start_date": "2005-05-01T00:00:00", "end_date": "2015-10-01T00:00:00", "count_of_observations": 10, "min_value": 5.79, "max_value": 12.68, "mean_value": 9.432, "elevation": 241 }, "geometry": { "type": "Point", "coordinates": [ 760633.440618033288047, 3255426.959675042890012 ] } },
{ "type": "Feature", "properties": { "well_id": "well_222", "y": 29.468242222222219, "x": 77.787093055555559, "start_date": "1998-05-01T00:00:00", "end_date": "2015-10-01T00:00:00", "count_of_observations": 12, "min_value": 4.365, "max_value": 13.14, "mean_value": 8.8658333333333328, "elevation": 249 }, "geometry": { "type": "Point", "coordinates": [ 770285.601547663565725, 3263100.240006210282445 ] } },
{ "type": "Feature", "properties": { "well_id": "well_233", "y": 29.612777777777779, "x": 77.792222222222222, "start_date": "1998-05-01T00:00:00", "end_date": "2013-05-01T00:00:00", "count_of_observations": 16, "min_value": 1.765, "max_value": 14.95, "mean_value": 4.355, "elevation": 253 }, "geometry": { "type": "Point", "coordinates": [ 770397.884609879925847, 3279136.608812296297401 ] } },
{ "type": "Feature", "properties": { "well_id": "well_234", "y": 29.551944444444445, "x": 77.85, "start_date": "1998-05-01T00:00:00", "end_date": "2009-05-01T00:00:00", "count_of_observations": 12, "min_value": 3.02, "max_value": 16.18, "mean_value": 6.605, "elevation": 249 }, "geometry": { "type": "Point", "coordinates": [ 776161.182710249209777, 3272528.203200863208622 ] } },
{ "type": "Feature", "properties": { "well_id": "well_236", "y": 29.666666666666668, "x": 77.841666666666669, "start_date": "1998-05-01T00:00:00", "end_date": "2009-05-01T00:00:00", "count_of_observations": 12, "min_value": 2.725, "max_value": 15.85, "mean_value": 6.7675, "elevation": 259 }, "geometry": { "type": "Point", "coordinates": [ 775041.404935102211311, 3285227.856180616188794 ] } },
{ "type": "Feature", "properties": { "well_id": "well_239", "y": 29.579166666666666, "x": 77.774722222222223, "start_date": "1998-05-01T00:00:00", "end_date": "2015-10-01T00:00:00", "count_of_observations": 14, "min_value": 1.57, "max_value": 18.875, "mean_value": 7.0217857142857145, "elevation": 252 }, "geometry": { "type": "Point", "coordinates": [ 768791.703081366373226, 3275369.469267730135471 ] } },
{ "type": "Feature", "properties": { "well_id": "well_242", "y": 29.355833333333333, "x": 77.531944444444449, "start_date": "1999-05-01T00:00:00", "end_date": "2015-10-01T00:00:00", "count_of_observations": 17, "min_value": 8.15, "max_value": 21.38, "mean_value": 13.142647058823529, "elevation": 240 }, "geometry": { "type": "Point", "coordinates": [ 745803.710834010969847, 3250073.563466627616435 ] } },
{ "type": "Feature", "properties": { "well_id": "well_243", "y": 29.367222222222221, "x": 77.561111111111103, "start_date": "2000-05-01T00:00:00", "end_date": "2014-05-01T00:00:00", "count_of_observations": 15, "min_value": 9.405, "max_value": 20.335, "mean_value": 13.742333333333333, "elevation": 241 }, "geometry": { "type": "Point", "coordinates": [ 748608.531492815585807, 3251397.839568671770394 ] } },
{ "type": "Feature", "properties": { "well_id": "well_244", "y": 29.350555555555555, "x": 77.556111111111107, "start_date": "1998-05-01T00:00:00", "end_date": "2015-10-01T00:00:00", "count_of_observations": 14, "min_value": 6.4, "max_value": 21.13, "mean_value": 12.101785714285715, "elevation": 239 }, "geometry": { "type": "Point", "coordinates": [ 748163.448701225686818, 3249539.615554062183946 ] } },
{ "type": "Feature", "properties": { "well_id": "well_246", "y": 29.37027777777778, "x": 77.630277777777778, "start_date": "1999-05-01T00:00:00", "end_date": "2015-10-01T00:00:00", "count_of_observations": 17, "min_value": 5.995, "max_value": 22.09, "mean_value": 10.339411764705881, "elevation": 239 }, "geometry": { "type": "Point", "coordinates": [ 755317.380993783473969, 3251885.897774291224778 ] } },
{ "type": "Feature", "properties": { "well_id": "well_251", "y": 28.727098333333331, "x": 77.325524166666668, "start_date": "1998-05-01T00:00:00", "end_date": "2014-10-01T00:00:00", "count_of_observations": 16, "min_value": 12.725, "max_value": 25.075, "mean_value": 17.62125, "elevation": 216 }, "geometry": { "type": "Point", "coordinates": [ 727132.070564047782682, 3179967.309677574317902 ] } },
{ "type": "Feature", "properties": { "well_id": "well_252", "y": 28.770408055555556, "x": 77.511688055555553, "start_date": "1998-05-01T00:00:00", "end_date": "2015-10-01T00:00:00", "count_of_observations": 17, "min_value": 3.125, "max_value": 5.57, "mean_value": 4.1511764705882346, "elevation": 205 }, "geometry": { "type": "Point", "coordinates": [ 745219.339883757987991, 3185137.222550511360168 ] } },
{ "type": "Feature", "properties": { "well_id": "well_254", "y": 28.991666666666667, "x": 77.525, "start_date": "2005-10-01T00:00:00", "end_date": "2015-10-01T00:00:00", "count_of_observations": 10, "min_value": 4.55, "max_value": 7.46, "mean_value": 6.586, "elevation": 224 }, "geometry": { "type": "Point", "coordinates": [ 745997.07299434649758, 3209690.659978375770152 ] } },
{ "type": "Feature", "properties": { "well_id": "well_255", "y": 28.966666666666665, "x": 77.4875, "start_date": "2005-10-01T00:00:00", "end_date": "2015-10-01T00:00:00", "count_of_observations": 10, "min_value": 3.89, "max_value": 7.875, "mean_value": 6.3645, "elevation": 217 }, "geometry": { "type": "Point", "coordinates": [ 742400.742775392369367, 3206841.954836448188871 ] } },
{ "type": "Feature", "properties": { "well_id": "well_261", "y": 29.225, "x": 77.658333333333346, "start_date": "1998-05-01T00:00:00", "end_date": "2015-10-01T00:00:00", "count_of_observations": 18, "min_value": 2.275, "max_value": 5.5065, "mean_value": 3.6909166666666673, "elevation": 234 }, "geometry": { "type": "Point", "coordinates": [ 758407.63243850285653, 3235842.265606453176588 ] } },
{ "type": "Feature", "properties": { "well_id": "well_263", "y": 29.101944444444445, "x": 77.267777777777781, "start_date": "1998-05-01T00:00:00", "end_date": "2015-10-01T00:00:00", "count_of_observations": 10, "min_value": 3.01, "max_value": 14.0, "mean_value": 8.1085, "elevation": 231 }, "geometry": { "type": "Point", "coordinates": [ 720694.905860444763675, 3221405.216221837792546 ] } },
{ "type": "Feature", "properties": { "well_id": "well_272", "y": 29.112222222222222, "x": 77.426944444444445, "start_date": "1998-05-01T00:00:00", "end_date": "2015-10-01T00:00:00", "count_of_observations": 18, "min_value": 8.79, "max_value": 14.94, "mean_value": 12.122222222222222, "elevation": 221 }, "geometry": { "type": "Point", "coordinates": [ 736165.905872456263751, 3222853.384174625389278 ] } },
{ "type": "Feature", "properties": { "well_id": "well_274", "y": 29.095, "x": 77.397222222222226, "start_date": "1998-05-01T00:00:00", "end_date": "2015-10-01T00:00:00", "count_of_observations": 18, "min_value": 18.61, "max_value": 29.125, "mean_value": 23.979444444444443, "elevation": 229 }, "geometry": { "type": "Point", "coordinates": [ 733311.60794702754356, 3220885.100410505663604 ] } },
{ "type": "Feature", "properties": { "well_id": "well_275", "y": 29.198888888888888, "x": 77.411944444444444, "start_date": "1998-05-01T00:00:00", "end_date": "2015-10-01T00:00:00", "count_of_observations": 18, "min_value": 19.205, "max_value": 31.665, "mean_value": 26.694527777777783, "elevation": 232 }, "geometry": { "type": "Point", "coordinates": [ 734508.660659579560161, 3232430.017913079354912 ] } },
{ "type": "Feature", "properties": { "well_id": "well_276", "y": 29.073611111111109, "x": 77.432222222222222, "start_date": "1998-05-01T00:00:00", "end_date": "2015-10-01T00:00:00", "count_of_observations": 13, "min_value": 8.765, "max_value": 17.425, "mean_value": 14.96115384615385, "elevation": 225 }, "geometry": { "type": "Point", "coordinates": [ 736768.042424997896887, 3218584.103104563429952 ] } },
{ "type": "Feature", "properties": { "well_id": "well_277", "y": 29.097777777777775, "x": 77.368611111111107, "start_date": "1998-05-01T00:00:00", "end_date": "2010-10-01T00:00:00", "count_of_observations": 11, "min_value": 16.65, "max_value": 29.155, "mean_value": 21.08, "elevation": 226 }, "geometry": { "type": "Point", "coordinates": [ 730519.967771681258455, 3221136.634360834490508 ] } },
{ "type": "Feature", "properties": { "well_id": "well_280", "y": 29.165277777777778, "x": 77.38666666666667, "start_date": "1998-05-01T00:00:00", "end_date": "2015-10-01T00:00:00", "count_of_observations": 18, "min_value": 19.405, "max_value": 32.065, "mean_value": 26.772222222222226, "elevation": 230 }, "geometry": { "type": "Point", "coordinates": [ 732125.911132405162789, 3228654.133415540680289 ] } },
{ "type": "Feature", "properties": { "well_id": "well_282", "y": 29.128055555555555, "x": 77.316111111111113, "start_date": "1998-05-01T00:00:00", "end_date": "2015-10-01T00:00:00", "count_of_observations": 18, "min_value": 4.225, "max_value": 12.365, "mean_value": 9.3946666666666676, "elevation": 231 }, "geometry": { "type": "Point", "coordinates": [ 725342.983449191087857, 3224390.995354660321027 ] } },
{ "type": "Feature", "properties": { "well_id": "well_285", "y": 28.858333333333334, "x": 77.393611111111113, "start_date": "2000-05-01T00:00:00", "end_date": "2015-10-01T00:00:00", "count_of_observations": 15, "min_value": 11.13, "max_value": 17.65, "mean_value": 14.071, "elevation": 213 }, "geometry": { "type": "Point", "coordinates": [ 733491.275123080471531, 3194645.171193603891879 ] } },
{ "type": "Feature", "properties": { "well_id": "well_286", "y": 28.834166666666665, "x": 77.3375, "start_date": "1999-05-01T00:00:00", "end_date": "2010-05-01T00:00:00", "count_of_observations": 11, "min_value": 10.35, "max_value": 18.105, "mean_value": 14.277727272727274, "elevation": 219 }, "geometry": { "type": "Point", "coordinates": [ 728068.864146405365318, 3191857.40757717192173 ] } },
{ "type": "Feature", "properties": { "well_id": "well_287", "y": 28.955833333333331, "x": 77.454166666666666, "start_date": "1998-05-01T00:00:00", "end_date": "2015-10-01T00:00:00", "count_of_observations": 18, "min_value": 4.955, "max_value": 9.875, "mean_value": 7.1422222222222222, "elevation": 220 }, "geometry": { "type": "Point", "coordinates": [ 739176.343446251237765, 3205573.227349597029388 ] } },
{ "type": "Feature", "properties": { "well_id": "well_289", "y": 28.995555555555555, "x": 77.427222222222227, "start_date": "1998-05-01T00:00:00", "end_date": "2015-10-01T00:00:00", "count_of_observations": 13, "min_value": 16.25, "max_value": 26.9, "mean_value": 21.660769230769233, "elevation": 224 }, "geometry": { "type": "Point", "coordinates": [ 736459.152894155588001, 3209921.998241303022951 ] } },
{ "type": "Feature", "properties": { "well_id": "well_291", "y": 28.92027777777778, "x": 77.401666666666671, "start_date": "1998-05-01T00:00:00", "end_date": "2015-10-01T00:00:00", "count_of_observations": 13, "min_value": 14.51, "max_value": 25.28, "mean_value": 20.833076923076927, "elevation": 221 }, "geometry": { "type": "Point", "coordinates": [ 734138.197377037839033, 3201527.095469119492918 ] } },
{ "type": "Feature", "properties": { "well_id": "well_293", "y": 28.935, "x": 77.453055555555565, "start_date": "1999-10-01T00:00:00", "end_date": "2015-10-01T00:00:00", "count_of_observations": 13, "min_value": 10.45, "max_value": 12.5, "mean_value": 11.39, "elevation": 217 }, "geometry": { "type": "Point", "coordinates": [ 739115.901948246057145, 3203261.711436957586557 ] } },
{ "type": "Feature", "properties": { "well_id": "well_294", "y": 28.969166666666666, "x": 77.36666666666666, "start_date": "1998-05-01T00:00:00", "end_date": "2007-10-01T00:00:00", "count_of_observations": 10, "min_value": 12.09, "max_value": 20.495, "mean_value": 15.7645, "elevation": 221 }, "geometry": { "type": "Point", "coordinates": [ 730616.613273575436324, 3206877.271193584892899 ] } },
{ "type": "Feature", "properties": { "well_id": "well_296", "y": 28.913888888888888, "x": 77.330555555555549, "start_date": "1998-05-01T00:00:00", "end_date": "2015-10-01T00:00:00", "count_of_observations": 14, "min_value": 2.175, "max_value": 21.625, "mean_value": 14.2775, "elevation": 223 }, "geometry": { "type": "Point", "coordinates": [ 727217.438454505521804, 3200680.386052902787924 ] } },
{ "type": "Feature", "properties": { "well_id": "well_297", "y": 28.9075, "x": 77.421666666666667, "start_date": "1998-05-01T00:00:00", "end_date": "2015-10-01T00:00:00", "count_of_observations": 18, "min_value": 9.075, "max_value": 14.15, "mean_value": 11.217222222222222, "elevation": 216 }, "geometry": { "type": "Point", "coordinates": [ 736117.575574710615911, 3200150.491826130077243 ] } },
{ "type": "Feature", "properties": { "well_id": "well_298", "y": 28.936388888888889, "x": 77.369722222222222, "start_date": "1998-05-01T00:00:00", "end_date": "2015-10-01T00:00:00", "count_of_observations": 12, "min_value": 11.57, "max_value": 26.375, "mean_value": 21.42, "elevation": 220 }, "geometry": { "type": "Point", "coordinates": [ 730987.231738920556381, 3203250.10321894986555 ] } },
{ "type": "Feature", "properties": { "well_id": "well_299", "y": 28.996944444444445, "x": 77.44861111111112, "start_date": "1998-05-01T00:00:00", "end_date": "2015-10-01T00:00:00", "count_of_observations": 17, "min_value": 4.39, "max_value": 16.415, "mean_value": 9.9444117647058814, "elevation": 219 }, "geometry": { "type": "Point", "coordinates": [ 738540.334038689965382, 3210118.967883981298655 ] } }
]
}
